{"type":"FeatureCollection","features":[{"type":"Feature","id":"05126","properties":{"nombre":"Mesegar de Corneja","ine":"05126"},"geometry":{"type":"MultiPolygon","coordinates":[[[[-5.3299,40.5175],[-5.303,40.5207],[-5.285,40.5127],[-5.2872,40.4981],[-5.3007,40.4965],[-5.3389,40.4884],[-5.3299,40.5175]]],[[[-5.276,40.6031],[-5.2715,40.5951],[-5.2737,40.5951],[-5.2827,40.5918],[-5.2872,40.5951],[-5.276,40.6031]]]]}},{"type":"Feature","id":"05127","properties":{"nombre":"Mijares","ine":"05127"},"geometry":{"type":"Polygon","coordinates":[[[-4.8801,40.3139],[-4.8576,40.3236],[-4.8261,40.3382],[-4.8126,40.3317],[-4.8036,40.3269],[-4.8081,40.2962],[-4.8036,40.2752],[-4.8171,40.2558],[-4.8059,40.2348],[-4.8194,40.2315],[-4.8351,40.2121],[-4.8464,40.2509],[-4.8554,40.259],[-4.8419,40.2784],[-4.8576,40.2994],[-4.8801,40.3139]]]}},{"type":"Feature","id":"05140","properties":{"nombre":"Muñomer del Peco","ine":"05140"},"geometry":{"type":"Polygon","coordinates":[[[-4.9139,40.8665],[-4.8936,40.8939],[-4.8846,40.8697],[-4.8576,40.8503],[-4.9026,40.8536],[-4.9139,40.8665]]]}},{"type":"Feature","id":"05265","properties":{"nombre":"Vita","ine":"05265"},"geometry":{"type":"Polygon","coordinates":[[[-5.0263,40.8293],[-5.0128,40.8406],[-5.0038,40.8455],[-4.9948,40.8455],[-4.9678,40.8229],[-4.9746,40.8148],[-5.0061,40.8002],[-5.0151,40.7857],[-5.0263,40.8293]]]}},{"type":"Feature","id":"05141","properties":{"nombre":"Muñopepe","ine":"05141"},"geometry":{"type":"Polygon","coordinates":[[[-4.8329,40.6532],[-4.8036,40.6451],[-4.8036,40.6274],[-4.8239,40.6193],[-4.8194,40.6209],[-4.8396,40.6532],[-4.8329,40.6532]]]}},{"type":"Feature","id":"05001","properties":{"nombre":"Adanero","ine":"05001"},"geometry":{"type":"Polygon","coordinates":[[[-4.6485,40.9489],[-4.6417,40.9683],[-4.5967,40.965],[-4.5652,40.957],[-4.5675,40.9456],[-4.5585,40.9408],[-4.5585,40.9166],[-4.6125,40.9198],[-4.6372,40.9473],[-4.6485,40.9489]]]}},{"type":"Feature","id":"05005","properties":{"nombre":"Albornos","ine":"05005"},"geometry":{"type":"Polygon","coordinates":[[[-4.9139,40.8342],[-4.9026,40.8536],[-4.8576,40.8503],[-4.8509,40.8422],[-4.8644,40.8212],[-4.8981,40.8099],[-4.9139,40.8342]]]}},{"type":"Feature","id":"05007","properties":{"nombre":"Aldeanueva de Santa Cruz","ine":"05007"},"geometry":{"type":"Polygon","coordinates":[[[-5.4469,40.3559],[-5.4559,40.3672],[-5.4312,40.3834],[-5.4244,40.3996],[-5.4154,40.3883],[-5.3974,40.3737],[-5.4469,40.3559]]]}},{"type":"Feature","id":"05008","properties":{"nombre":"Aldeaseca","ine":"05008"},"geometry":{"type":"Polygon","coordinates":[[[-4.8396,41.0555],[-4.8036,41.0652],[-4.7834,41.0652],[-4.7744,41.0636],[-4.7677,41.0377],[-4.7857,41.0183],[-4.8239,41.0216],[-4.8396,41.0297],[-4.8396,41.0555]]]}},{"type":"Feature","id":"05010","properties":{"nombre":"La Aldehuela","ine":"05010"},"geometry":{"type":"Polygon","coordinates":[[[-5.4312,40.4189],[-5.4109,40.4319],[-5.3929,40.448],[-5.3772,40.4141],[-5.3817,40.4012],[-5.4154,40.3883],[-5.4244,40.3996],[-5.4312,40.4189]]]}},{"type":"Feature","id":"05012","properties":{"nombre":"Amavida","ine":"05012"},"geometry":{"type":"Polygon","coordinates":[[[-5.096,40.5918],[-5.0758,40.608],[-5.0578,40.5951],[-5.0443,40.5741],[-5.0308,40.5724],[-5.0556,40.5466],[-5.0645,40.5611],[-5.096,40.5918]]]}},{"type":"Feature","id":"05013","properties":{"nombre":"El Arenal","ine":"05013"},"geometry":{"type":"Polygon","coordinates":[[[-5.123,40.2929],[-5.096,40.2945],[-5.0623,40.3123],[-5.0578,40.3091],[-5.0645,40.2832],[-5.0533,40.2655],[-5.0556,40.2477],[-5.0803,40.2445],[-5.0983,40.2525],[-5.123,40.2929]]]}},{"type":"Feature","id":"05014","properties":{"nombre":"Arenas de San Pedro","ine":"05014"},"geometry":{"type":"Polygon","coordinates":[[[-5.24,40.2477],[-5.1927,40.2671],[-5.1815,40.2606],[-5.1905,40.2299],[-5.1748,40.2267],[-5.1343,40.1944],[-5.1365,40.1669],[-5.1095,40.154],[-5.1208,40.2057],[-5.1163,40.2332],[-5.0915,40.2348],[-5.0803,40.2445],[-5.0556,40.2477],[-5.0466,40.2235],[-5.0533,40.2138],[-5.0106,40.1604],[-4.9881,40.1621],[-4.9746,40.1556],[-4.9588,40.1556],[-4.9543,40.154],[-4.9498,40.133],[-4.9543,40.1217],[-5.0128,40.112],[-5.0061,40.1265],[-5.0173,40.1588],[-5.0556,40.1491],[-5.0668,40.1508],[-5.1005,40.1265],[-5.1433,40.091],[-5.1658,40.0894],[-5.1815,40.0877],[-5.1905,40.1201],[-5.1905,40.1766],[-5.24,40.2477]],[[-5.1658,40.1604],[-5.1478,40.175],[-5.1748,40.1734],[-5.1658,40.1604]]]}},{"type":"Feature","id":"05015","properties":{"nombre":"Arevalillo","ine":"05015"},"geometry":{"type":"Polygon","coordinates":[[[-5.4087,40.6096],[-5.3974,40.6144],[-5.3704,40.6064],[-5.3389,40.5724],[-5.3524,40.5611],[-5.3592,40.5611],[-5.3997,40.5983],[-5.4087,40.6096]]]}},{"type":"Feature","id":"05021","properties":{"nombre":"El Barco de Ávila","ine":"05021"},"geometry":{"type":"Polygon","coordinates":[[[-5.5459,40.3705],[-5.5189,40.3721],[-5.4874,40.3511],[-5.5211,40.3366],[-5.5346,40.3446],[-5.5459,40.3705]]]}},{"type":"Feature","id":"05025","properties":{"nombre":"Becedillas","ine":"05025"},"geometry":{"type":"Polygon","coordinates":[[[-5.3524,40.5611],[-5.3389,40.5724],[-5.3007,40.5708],[-5.2872,40.5951],[-5.2827,40.5918],[-5.3007,40.566],[-5.2985,40.545],[-5.303,40.5207],[-5.3299,40.5175],[-5.3412,40.5498],[-5.3524,40.5611]]]}},{"type":"Feature","id":"05026","properties":{"nombre":"Bercial de Zapardiel","ine":"05026"},"geometry":{"type":"Polygon","coordinates":[[[-5.0083,41.0442],[-4.9588,41.0717],[-4.9453,41.0604],[-4.9588,41.0426],[-4.9543,41.0248],[-4.9858,41.0151],[-5.0083,41.0442]]]}},{"type":"Feature","id":"05142","properties":{"nombre":"Muñosancho","ine":"05142"},"geometry":{"type":"Polygon","coordinates":[[[-5.0623,40.9101],[-5.0645,40.9182],[-5.0398,40.9424],[-5.0151,40.9521],[-5.0038,40.9473],[-5.0083,40.9117],[-5.0398,40.8972],[-5.0623,40.9101]]]}},{"type":"Feature","id":"05181","properties":{"nombre":"Pascualcobo","ine":"05181"},"geometry":{"type":"Polygon","coordinates":[[[-5.2985,40.6435],[-5.2962,40.6548],[-5.258,40.6694],[-5.2422,40.6694],[-5.2625,40.6419],[-5.2377,40.6322],[-5.2332,40.6225],[-5.2715,40.6241],[-5.2737,40.6144],[-5.2782,40.6387],[-5.2985,40.6435]]]}},{"type":"Feature","id":"05197","properties":{"nombre":"Salobral","ine":"05197"},"geometry":{"type":"Polygon","coordinates":[[[-4.8261,40.6128],[-4.8239,40.6193],[-4.8036,40.6274],[-4.7879,40.6112],[-4.7857,40.6047],[-4.7992,40.5902],[-4.8149,40.5983],[-4.8261,40.6128]]]}},{"type":"Feature","id":"05198","properties":{"nombre":"Salvadiós","ine":"05198"},"geometry":{"type":"Polygon","coordinates":[[[-5.1095,40.8956],[-5.0848,40.9085],[-5.0623,40.9101],[-5.0398,40.8972],[-5.0466,40.881],[-5.0938,40.8665],[-5.1028,40.8568],[-5.114,40.8891],[-5.1095,40.8956]]]}},{"type":"Feature","id":"05215","properties":{"nombre":"San Martín de la Vega del Alberche","ine":"05215"},"geometry":{"type":"Polygon","coordinates":[[[-5.231,40.44],[-5.2085,40.4545],[-5.186,40.4593],[-5.1725,40.4561],[-5.1478,40.4577],[-5.1253,40.4254],[-5.1275,40.4028],[-5.168,40.4012],[-5.1815,40.3915],[-5.2062,40.3979],[-5.213,40.4076],[-5.2242,40.4093],[-5.231,40.44]]]}},{"type":"Feature","id":"05062","properties":{"nombre":"Collado de Contreras","ine":"05062"},"geometry":{"type":"Polygon","coordinates":[[[-4.9566,40.9004],[-4.9026,40.9036],[-4.8936,40.8939],[-4.9139,40.8665],[-4.9453,40.8632],[-4.9566,40.8616],[-4.9566,40.9004]]]}},{"type":"Feature","id":"05063","properties":{"nombre":"Collado del Mirón","ine":"05063"},"geometry":{"type":"Polygon","coordinates":[[[-5.3704,40.5353],[-5.3772,40.5627],[-5.3592,40.5611],[-5.3524,40.5611],[-5.3412,40.5498],[-5.3704,40.5353]]]}},{"type":"Feature","id":"05035","properties":{"nombre":"Blascosancho","ine":"05035"},"geometry":{"type":"Polygon","coordinates":[[[-4.6867,40.8584],[-4.6687,40.8907],[-4.6282,40.8972],[-4.6147,40.8972],[-4.608,40.8762],[-4.6192,40.8568],[-4.6305,40.8568],[-4.6867,40.8584]]]}},{"type":"Feature","id":"05064","properties":{"nombre":"Constanzana","ine":"05064"},"geometry":{"type":"Polygon","coordinates":[[[-4.9161,40.9327],[-4.9139,40.9473],[-4.8936,40.9521],[-4.8869,40.9586],[-4.8644,40.9424],[-4.8329,40.9149],[-4.8441,40.9117],[-4.8644,40.902],[-4.8936,40.8939],[-4.9026,40.9036],[-4.9161,40.9327]]]}},{"type":"Feature","id":"05069","properties":{"nombre":"Donjimeno","ine":"05069"},"geometry":{"type":"Polygon","coordinates":[[[-4.8869,40.9586],[-4.8734,40.978],[-4.8351,40.9844],[-4.8306,40.9537],[-4.8644,40.9424],[-4.8869,40.9586]]]}},{"type":"Feature","id":"05070","properties":{"nombre":"Donvidas","ine":"05070"},"geometry":{"type":"Polygon","coordinates":[[[-4.8284,41.0991],[-4.8149,41.104],[-4.7879,41.0975],[-4.7834,41.0652],[-4.8036,41.0652],[-4.8284,41.0991]]]}},{"type":"Feature","id":"05072","properties":{"nombre":"Espinosa de los Caballeros","ine":"05072"},"geometry":{"type":"Polygon","coordinates":[[[-4.6957,41.0006],[-4.7069,41.02],[-4.7002,41.0313],[-4.6799,41.028],[-4.6597,41.041],[-4.6395,41.0297],[-4.6237,41.007],[-4.6305,41.0119],[-4.6687,40.999],[-4.6957,41.0006]]]}},{"type":"Feature","id":"05077","properties":{"nombre":"Fuente el Saúz","ine":"05077"},"geometry":{"type":"Polygon","coordinates":[[[-4.9251,40.9909],[-4.8959,40.9893],[-4.8801,40.9828],[-4.8734,40.978],[-4.8869,40.9586],[-4.8936,40.9521],[-4.9071,40.9602],[-4.9251,40.9909]]]}},{"type":"Feature","id":"05078","properties":{"nombre":"Fuentes de Año","ine":"05078"},"geometry":{"type":"Polygon","coordinates":[[[-4.9431,41.0248],[-4.9318,41.0474],[-4.9049,41.0474],[-4.8734,41.0183],[-4.8914,41.0054],[-4.9318,41.0006],[-4.9431,41.0248]]]}},{"type":"Feature","id":"05030","properties":{"nombre":"Berrocalejo de Aragona","ine":"05030"},"geometry":{"type":"Polygon","coordinates":[[[-4.617,40.7081],[-4.5742,40.7114],[-4.5765,40.6807],[-4.6102,40.6888],[-4.617,40.7081]]]}},{"type":"Feature","id":"05084","properties":{"nombre":"Gilbuena","ine":"05084"},"geometry":{"type":"Polygon","coordinates":[[[-5.6223,40.4254],[-5.5728,40.448],[-5.5818,40.3818],[-5.5998,40.3931],[-5.6223,40.4254]]]}},{"type":"Feature","id":"05085","properties":{"nombre":"Gil García","ine":"05085"},"geometry":{"type":"Polygon","coordinates":[[[-5.6043,40.3107],[-5.5998,40.3123],[-5.5773,40.2929],[-5.5661,40.2913],[-5.5863,40.259],[-5.5886,40.2315],[-5.6133,40.2994],[-5.6043,40.3107]]]}},{"type":"Feature","id":"05002","properties":{"nombre":"La Adrada","ine":"05002"},"geometry":{"type":"Polygon","coordinates":[[[-4.6979,40.2816],[-4.7002,40.2881],[-4.6597,40.3042],[-4.662,40.3252],[-4.6844,40.3495],[-4.6822,40.3608],[-4.6305,40.3672],[-4.6102,40.3543],[-4.6327,40.3285],[-4.6102,40.301],[-4.6395,40.2687],[-4.6687,40.2509],[-4.6867,40.2493],[-4.7002,40.2574],[-4.6979,40.2816]]]}},{"type":"Feature","id":"05016","properties":{"nombre":"Arévalo","ine":"05016"},"geometry":{"type":"Polygon","coordinates":[[[-4.7744,41.0636],[-4.7407,41.0668],[-4.7294,41.104],[-4.7159,41.1072],[-4.7069,41.0894],[-4.7159,41.0717],[-4.7024,41.0523],[-4.6597,41.041],[-4.6597,41.041],[-4.6799,41.028],[-4.7002,41.0313],[-4.7069,41.02],[-4.6957,41.0006],[-4.6934,40.9844],[-4.7182,40.9796],[-4.7114,40.9957],[-4.7272,40.999],[-4.7204,41.0167],[-4.7497,41.0394],[-4.7677,41.0377],[-4.7744,41.0636]]]}},{"type":"Feature","id":"05017","properties":{"nombre":"Aveinte","ine":"05017"},"geometry":{"type":"Polygon","coordinates":[[[-4.8531,40.7647],[-4.8419,40.8035],[-4.8306,40.8115],[-4.8104,40.7873],[-4.8171,40.7728],[-4.8509,40.7631],[-4.8531,40.7647]]]}},{"type":"Feature","id":"05018","properties":{"nombre":"Avellaneda","ine":"05018"},"geometry":{"type":"Polygon","coordinates":[[[-5.4154,40.3883],[-5.3817,40.4012],[-5.3592,40.3963],[-5.3614,40.3834],[-5.3974,40.3737],[-5.4154,40.3883]]]}},{"type":"Feature","id":"05019","properties":{"nombre":"Ávila","ine":"05019"},"geometry":{"type":"Polygon","coordinates":[[[-4.8149,40.7227],[-4.7969,40.7534],[-4.7789,40.7453],[-4.7879,40.7292],[-4.7834,40.7178],[-4.7654,40.7275],[-4.7474,40.7227],[-4.7339,40.7001],[-4.6957,40.7098],[-4.6889,40.734],[-4.653,40.7356],[-4.635,40.7178],[-4.617,40.7081],[-4.6102,40.6888],[-4.5765,40.6807],[-4.554,40.6888],[-4.5383,40.6839],[-4.5293,40.6936],[-4.518,40.6888],[-4.4708,40.692],[-4.4528,40.6678],[-4.4663,40.6354],[-4.4798,40.6193],[-4.5135,40.6225],[-4.509,40.6338],[-4.5338,40.65],[-4.5517,40.6516],[-4.5652,40.6661],[-4.5945,40.6516],[-4.5877,40.6403],[-4.6192,40.6468],[-4.6462,40.6193],[-4.6575,40.5967],[-4.6889,40.5999],[-4.6934,40.5627],[-4.7137,40.5644],[-4.7204,40.5773],[-4.7677,40.5741],[-4.7474,40.5837],[-4.7429,40.6064],[-4.7294,40.6112],[-4.7204,40.6435],[-4.7384,40.6419],[-4.7519,40.6581],[-4.7407,40.6775],[-4.7789,40.7081],[-4.7947,40.7081],[-4.8104,40.7178],[-4.8149,40.7227]]]}},{"type":"Feature","id":"05022","properties":{"nombre":"El Barraco","ine":"05022"},"geometry":{"type":"Polygon","coordinates":[[[-4.6844,40.5337],[-4.6799,40.5401],[-4.635,40.5498],[-4.6462,40.5288],[-4.6327,40.5046],[-4.5652,40.4981],[-4.5315,40.4868],[-4.5248,40.4561],[-4.5428,40.4383],[-4.554,40.4189],[-4.5383,40.3931],[-4.5495,40.3446],[-4.5945,40.3462],[-4.6102,40.3543],[-4.6305,40.3672],[-4.6192,40.3915],[-4.626,40.4012],[-4.6215,40.4206],[-4.6552,40.4803],[-4.671,40.4981],[-4.6844,40.5337]]]}},{"type":"Feature","id":"05023","properties":{"nombre":"Barromán","ine":"05023"},"geometry":{"type":"Polygon","coordinates":[[[-4.9588,41.0717],[-4.9453,41.0862],[-4.8936,41.0636],[-4.8869,41.0555],[-4.9049,41.0474],[-4.9318,41.0474],[-4.9431,41.0248],[-4.9543,41.0248],[-4.9588,41.0426],[-4.9453,41.0604],[-4.9588,41.0717]]]}},{"type":"Feature","id":"05024","properties":{"nombre":"Becedas","ine":"05024"},"geometry":{"type":"Polygon","coordinates":[[[-5.6741,40.3479],[-5.6538,40.3931],[-5.6538,40.4109],[-5.6358,40.4254],[-5.6223,40.4254],[-5.5998,40.3931],[-5.5818,40.3818],[-5.5818,40.3802],[-5.6088,40.3689],[-5.6741,40.3479]]]}},{"type":"Feature","id":"05027","properties":{"nombre":"Las Berlanas","ine":"05027"},"geometry":{"type":"Polygon","coordinates":[[[-4.8014,40.8051],[-4.7744,40.8196],[-4.7564,40.8245],[-4.7384,40.8115],[-4.7452,40.7857],[-4.7609,40.7792],[-4.8014,40.7938],[-4.8014,40.8051]]]}},{"type":"Feature","id":"05029","properties":{"nombre":"Bernuy-Zapardiel","ine":"05029"},"geometry":{"type":"Polygon","coordinates":[[[-4.9903,40.9763],[-4.9858,40.9796],[-4.9498,40.9925],[-4.9318,40.9925],[-4.9251,40.9909],[-4.9071,40.9602],[-4.8936,40.9521],[-4.9139,40.9473],[-4.9453,40.9537],[-4.9498,40.965],[-4.9903,40.9763]]]}},{"type":"Feature","id":"05222","properties":{"nombre":"Santa Cruz de Pinares","ine":"05222"},"geometry":{"type":"Polygon","coordinates":[[[-4.635,40.5498],[-4.6012,40.5676],[-4.5585,40.5482],[-4.5652,40.4981],[-4.6327,40.5046],[-4.6462,40.5288],[-4.635,40.5498]]]}},{"type":"Feature","id":"05033","properties":{"nombre":"Blascomillán","ine":"05033"},"geometry":{"type":"Polygon","coordinates":[[[-5.1635,40.8649],[-5.1365,40.8487],[-5.1005,40.8439],[-5.0848,40.8196],[-5.0533,40.797],[-5.06,40.7792],[-5.0735,40.7889],[-5.1163,40.7905],[-5.1298,40.8067],[-5.159,40.8196],[-5.168,40.8406],[-5.1635,40.8649]]]}},{"type":"Feature","id":"05034","properties":{"nombre":"Blasconuño de Matacabras","ine":"05034"},"geometry":{"type":"Polygon","coordinates":[[[-5.0218,41.1541],[-5.0128,41.1638],[-4.9903,41.1605],[-4.9678,41.1524],[-4.9588,41.1395],[-4.9566,41.1314],[-4.9926,41.1201],[-5.0038,41.1476],[-5.0218,41.1541]]]}},{"type":"Feature","id":"05089","properties":{"nombre":"Guisando","ine":"05089"},"geometry":{"type":"Polygon","coordinates":[[[-5.1815,40.2606],[-5.1545,40.2606],[-5.132,40.2493],[-5.1163,40.2332],[-5.1208,40.2057],[-5.1095,40.154],[-5.1365,40.1669],[-5.1343,40.1944],[-5.1748,40.2267],[-5.1905,40.2299],[-5.1815,40.2606]]]}},{"type":"Feature","id":"05036","properties":{"nombre":"El Bohodón","ine":"05036"},"geometry":{"type":"Polygon","coordinates":[[[-4.7834,40.923],[-4.7542,40.936],[-4.7384,40.9279],[-4.6687,40.9263],[-4.6687,40.9263],[-4.7272,40.9036],[-4.7542,40.8988],[-4.7812,40.9053],[-4.7834,40.923]]]}},{"type":"Feature","id":"05038","properties":{"nombre":"Bonilla de la Sierra","ine":"05038"},"geometry":{"type":"Polygon","coordinates":[[[-5.303,40.5207],[-5.2985,40.545],[-5.2917,40.5514],[-5.2692,40.5417],[-5.2467,40.5498],[-5.2535,40.5821],[-5.2737,40.5951],[-5.2715,40.5951],[-5.258,40.6096],[-5.2715,40.6241],[-5.2332,40.6225],[-5.2332,40.6193],[-5.2332,40.5967],[-5.2467,40.5821],[-5.2175,40.5595],[-5.186,40.5514],[-5.2242,40.5272],[-5.2355,40.503],[-5.2535,40.5013],[-5.2872,40.4981],[-5.285,40.5127],[-5.303,40.5207]]]}},{"type":"Feature","id":"05037","properties":{"nombre":"Bohoyo","ine":"05037"},"geometry":{"type":"Polygon","coordinates":[[[-5.5009,40.3252],[-5.4941,40.3188],[-5.4694,40.3269],[-5.4312,40.3252],[-5.4087,40.3236],[-5.3749,40.3059],[-5.3659,40.2962],[-5.3232,40.2865],[-5.3164,40.2638],[-5.3434,40.2638],[-5.3952,40.2509],[-5.4289,40.2525],[-5.4649,40.2945],[-5.4761,40.2978],[-5.5031,40.3172],[-5.5009,40.3252]]]}},{"type":"Feature","id":"05046","properties":{"nombre":"Canales","ine":"05046"},"geometry":{"type":"Polygon","coordinates":[[[-4.9318,40.9925],[-4.9318,41.0006],[-4.8914,41.0054],[-4.8801,40.9828],[-4.8959,40.9893],[-4.9251,40.9909],[-4.9318,40.9925]]]}},{"type":"Feature","id":"05047","properties":{"nombre":"Candeleda","ine":"05047"},"geometry":{"type":"Polygon","coordinates":[[[-5.3434,40.2638],[-5.3164,40.2638],[-5.2827,40.2412],[-5.2737,40.2477],[-5.2625,40.2509],[-5.24,40.2477],[-5.1905,40.1766],[-5.1905,40.1201],[-5.1815,40.0877],[-5.1995,40.0813],[-5.2107,40.1055],[-5.249,40.1087],[-5.294,40.1104],[-5.3164,40.1071],[-5.3367,40.1152],[-5.3682,40.1637],[-5.3637,40.1782],[-5.3704,40.2154],[-5.3592,40.2251],[-5.3434,40.2638]]]}},{"type":"Feature","id":"05039","properties":{"nombre":"Brabos","ine":"05039"},"geometry":{"type":"Polygon","coordinates":[[[-4.9678,40.776],[-4.9453,40.7825],[-4.9229,40.7809],[-4.9094,40.7841],[-4.9004,40.7631],[-4.9139,40.7388],[-4.9094,40.7275],[-4.9251,40.7227],[-4.9453,40.7453],[-4.9363,40.7566],[-4.9678,40.776]]]}},{"type":"Feature","id":"05048","properties":{"nombre":"Cantiveros","ine":"05048"},"geometry":{"type":"Polygon","coordinates":[[[-4.9971,40.9521],[-4.9903,40.9763],[-4.9498,40.965],[-4.9453,40.9537],[-4.9139,40.9473],[-4.9161,40.9327],[-4.9408,40.9473],[-4.9521,40.9424],[-4.9971,40.9521]]]}},{"type":"Feature","id":"05090","properties":{"nombre":"Gutierre-Muñoz","ine":"05090"},"geometry":{"type":"Polygon","coordinates":[[[-4.6912,40.9731],[-4.6327,40.9925],[-4.6125,40.9877],[-4.5967,40.965],[-4.6417,40.9683],[-4.6485,40.9489],[-4.6754,40.9343],[-4.6889,40.9505],[-4.6912,40.9731]]]}},{"type":"Feature","id":"05040","properties":{"nombre":"Bularros","ine":"05040"},"geometry":{"type":"MultiPolygon","coordinates":[[[[-4.8104,40.7178],[-4.7947,40.7081],[-4.8126,40.6952],[-4.8104,40.7178]]],[[[-4.8509,40.7631],[-4.8171,40.7728],[-4.8149,40.7598],[-4.7969,40.7534],[-4.8149,40.7227],[-4.8351,40.7243],[-4.8419,40.7114],[-4.8801,40.7114],[-4.8936,40.7275],[-4.8599,40.7421],[-4.8509,40.7631]]]]}},{"type":"Feature","id":"05103","properties":{"nombre":"Hoyorredondo","ine":"05103"},"geometry":{"type":"Polygon","coordinates":[[[-5.4334,40.469],[-5.4154,40.4787],[-5.3974,40.4868],[-5.3839,40.4707],[-5.3929,40.448],[-5.4109,40.4319],[-5.4267,40.4416],[-5.4334,40.469]]]}},{"type":"Feature","id":"05041","properties":{"nombre":"Burgohondo","ine":"05041"},"geometry":{"type":"Polygon","coordinates":[[[-4.8284,40.4189],[-4.7902,40.4335],[-4.7834,40.4319],[-4.7407,40.4319],[-4.7542,40.3915],[-4.7519,40.3737],[-4.7272,40.3576],[-4.7722,40.3446],[-4.8036,40.3269],[-4.8126,40.3317],[-4.7992,40.3479],[-4.7992,40.3786],[-4.8126,40.3996],[-4.8284,40.4189]]]}},{"type":"Feature","id":"05042","properties":{"nombre":"Cabezas de Alambre","ine":"05042"},"geometry":{"type":"Polygon","coordinates":[[[-4.8644,40.9424],[-4.8306,40.9537],[-4.8126,40.9424],[-4.8171,40.9263],[-4.8329,40.9149],[-4.8644,40.9424]]]}},{"type":"Feature","id":"05043","properties":{"nombre":"Cabezas del Pozo","ine":"05043"},"geometry":{"type":"Polygon","coordinates":[[[-4.9993,40.9957],[-4.9858,41.0151],[-4.9543,41.0248],[-4.9431,41.0248],[-4.9318,41.0006],[-4.9318,40.9925],[-4.9498,40.9925],[-4.9858,40.9796],[-4.9993,40.9812],[-4.9993,40.9957]]]}},{"type":"Feature","id":"05044","properties":{"nombre":"Cabezas del Villar","ine":"05044"},"geometry":{"type":"Polygon","coordinates":[[[-5.2557,40.7388],[-5.2152,40.7582],[-5.2197,40.7728],[-5.1793,40.797],[-5.1568,40.7679],[-5.1793,40.7469],[-5.1703,40.7356],[-5.1972,40.7243],[-5.1905,40.7001],[-5.177,40.7001],[-5.1793,40.6855],[-5.1613,40.6758],[-5.1523,40.6613],[-5.1365,40.6629],[-5.1343,40.6548],[-5.1613,40.6322],[-5.1882,40.6241],[-5.2175,40.6128],[-5.2332,40.6193],[-5.2332,40.6225],[-5.2377,40.6322],[-5.2625,40.6419],[-5.2422,40.6694],[-5.231,40.6758],[-5.2535,40.734],[-5.2557,40.7388]]]}},{"type":"Feature","id":"05045","properties":{"nombre":"Cabizuela","ine":"05045"},"geometry":{"type":"Polygon","coordinates":[[[-4.8441,40.9117],[-4.8329,40.9149],[-4.8171,40.9263],[-4.7834,40.923],[-4.7812,40.9053],[-4.7879,40.8826],[-4.8014,40.8778],[-4.8126,40.8746],[-4.8441,40.9117]]]}},{"type":"Feature","id":"05049","properties":{"nombre":"Cardeñosa","ine":"05049"},"geometry":{"type":"Polygon","coordinates":[[[-4.7789,40.7453],[-4.7609,40.7615],[-4.7317,40.7631],[-4.7227,40.7712],[-4.6912,40.7566],[-4.6889,40.734],[-4.6957,40.7098],[-4.7339,40.7001],[-4.7474,40.7227],[-4.7654,40.7275],[-4.7834,40.7178],[-4.7879,40.7292],[-4.7789,40.7453]]]}},{"type":"Feature","id":"05051","properties":{"nombre":"La Carrera","ine":"05051"},"geometry":{"type":"Polygon","coordinates":[[[-5.5818,40.3802],[-5.5728,40.3786],[-5.5459,40.3705],[-5.5346,40.3446],[-5.5549,40.3252],[-5.5728,40.3382],[-5.5818,40.3802]]]}},{"type":"Feature","id":"05104","properties":{"nombre":"Hoyos del Collado","ine":"05104"},"geometry":{"type":"Polygon","coordinates":[[[-5.213,40.4076],[-5.2062,40.3979],[-5.1905,40.3721],[-5.1905,40.343],[-5.204,40.3446],[-5.2152,40.3559],[-5.213,40.4076]]]}},{"type":"Feature","id":"05052","properties":{"nombre":"Casas del Puerto","ine":"05052"},"geometry":{"type":"Polygon","coordinates":[[[-5.2355,40.503],[-5.2242,40.5272],[-5.186,40.5514],[-5.1658,40.5482],[-5.1635,40.5191],[-5.1163,40.5207],[-5.1073,40.5094],[-5.1208,40.5062],[-5.1568,40.5191],[-5.168,40.5078],[-5.2085,40.5159],[-5.2355,40.503]]]}},{"type":"Feature","id":"05053","properties":{"nombre":"Casasola","ine":"05053"},"geometry":{"type":"Polygon","coordinates":[[[-4.8689,40.6613],[-4.8396,40.6726],[-4.8329,40.6904],[-4.8284,40.6936],[-4.7902,40.6597],[-4.7834,40.6468],[-4.8036,40.6451],[-4.8329,40.6532],[-4.8689,40.6613]]]}},{"type":"Feature","id":"05109","properties":{"nombre":"Langa","ine":"05109"},"geometry":{"type":"Polygon","coordinates":[[[-4.8914,41.0054],[-4.8734,41.0183],[-4.8396,41.0297],[-4.8239,41.0216],[-4.8284,40.986],[-4.8351,40.9844],[-4.8734,40.978],[-4.8801,40.9828],[-4.8914,41.0054]]]}},{"type":"Feature","id":"05054","properties":{"nombre":"Casavieja","ine":"05054"},"geometry":{"type":"Polygon","coordinates":[[[-4.8036,40.3269],[-4.7722,40.3446],[-4.7519,40.3301],[-4.7452,40.2962],[-4.7272,40.2735],[-4.7429,40.2752],[-4.7609,40.2606],[-4.8036,40.2752],[-4.8081,40.2962],[-4.8036,40.3269]]]}},{"type":"Feature","id":"05055","properties":{"nombre":"Casillas","ine":"05055"},"geometry":{"type":"Polygon","coordinates":[[[-4.5945,40.3462],[-4.5495,40.3446],[-4.5472,40.3414],[-4.545,40.3301],[-4.5675,40.3236],[-4.563,40.3123],[-4.5967,40.3204],[-4.6035,40.3349],[-4.5945,40.3462]]]}},{"type":"Feature","id":"05056","properties":{"nombre":"Castellanos de Zapardiel","ine":"05056"},"geometry":{"type":"Polygon","coordinates":[[[-4.9453,41.0862],[-4.9408,41.0943],[-4.9296,41.1024],[-4.8734,41.0765],[-4.8756,41.062],[-4.8869,41.0555],[-4.8936,41.0636],[-4.9453,41.0862]]]}},{"type":"Feature","id":"05057","properties":{"nombre":"Cebreros","ine":"05057"},"geometry":{"type":"Polygon","coordinates":[[[-4.5428,40.4383],[-4.5248,40.4561],[-4.5315,40.4868],[-4.5,40.5094],[-4.4663,40.5078],[-4.4325,40.4949],[-4.4258,40.4852],[-4.3786,40.469],[-4.3426,40.4852],[-4.3403,40.469],[-4.3246,40.4593],[-4.3381,40.4319],[-4.3246,40.4189],[-4.3201,40.4109],[-4.3988,40.4109],[-4.4213,40.406],[-4.4415,40.4141],[-4.4663,40.4076],[-4.464,40.4222],[-4.527,40.4383],[-4.5428,40.4383]]]}},{"type":"Feature","id":"05116","properties":{"nombre":"Malpartida de Corneja","ine":"05116"},"geometry":{"type":"Polygon","coordinates":[[[-5.3817,40.5062],[-5.3704,40.5304],[-5.3704,40.5353],[-5.3412,40.5498],[-5.3299,40.5175],[-5.3389,40.4884],[-5.3637,40.4917],[-5.3524,40.5046],[-5.3817,40.5062]]]}},{"type":"Feature","id":"05058","properties":{"nombre":"Cepeda la Mora","ine":"05058"},"geometry":{"type":"Polygon","coordinates":[[[-5.0938,40.4707],[-5.0735,40.4771],[-5.0376,40.4868],[-5.0106,40.4755],[-5.0241,40.4529],[-5.0196,40.4319],[-5.0331,40.4222],[-5.0511,40.4254],[-5.0623,40.4383],[-5.0915,40.4432],[-5.0938,40.4707]]]}},{"type":"Feature","id":"05061","properties":{"nombre":"La Colilla","ine":"05061"},"geometry":{"type":"Polygon","coordinates":[[[-4.7902,40.6597],[-4.7519,40.6581],[-4.7384,40.6419],[-4.7204,40.6435],[-4.7384,40.629],[-4.7722,40.6354],[-4.7834,40.6468],[-4.7902,40.6597]]]}},{"type":"Feature","id":"05059","properties":{"nombre":"Cillán","ine":"05059"},"geometry":{"type":"MultiPolygon","coordinates":[[[[-5.0151,40.671],[-5.0151,40.671],[-5.0151,40.671],[-5.0151,40.671]]],[[[-5.0083,40.7065],[-4.9678,40.7275],[-4.9701,40.7114],[-4.9588,40.6888],[-4.9701,40.6758],[-4.9926,40.6888],[-5.0016,40.6936],[-5.0151,40.6775],[-5.0263,40.6871],[-5.0083,40.7065]]]]}},{"type":"Feature","id":"05060","properties":{"nombre":"Cisla","ine":"05060"},"geometry":{"type":"Polygon","coordinates":[[[-5.0398,40.9424],[-5.0511,40.9666],[-5.0376,40.9747],[-5.0128,41.0006],[-4.9993,40.9957],[-4.9993,40.9812],[-4.9858,40.9796],[-4.9903,40.9763],[-4.9971,40.9521],[-5.0038,40.9473],[-5.0151,40.9521],[-5.0398,40.9424]]]}},{"type":"Feature","id":"05117","properties":{"nombre":"Mamblas","ine":"05117"},"geometry":{"type":"Polygon","coordinates":[[[-5.0511,40.9812],[-5.0623,40.9957],[-5.0218,41.0377],[-5.0083,41.0442],[-4.9858,41.0151],[-4.9993,40.9957],[-5.0128,41.0006],[-5.0376,40.9747],[-5.0511,40.9812]]]}},{"type":"Feature","id":"05065","properties":{"nombre":"Crespos","ine":"05065"},"geometry":{"type":"Polygon","coordinates":[[[-5.0038,40.8455],[-5.0061,40.8536],[-4.9993,40.8859],[-4.9723,40.902],[-4.9566,40.9004],[-4.9566,40.8616],[-4.9453,40.8632],[-4.9363,40.8342],[-4.9588,40.8196],[-4.9678,40.8229],[-4.9948,40.8455],[-5.0038,40.8455]]]}},{"type":"Feature","id":"05066","properties":{"nombre":"Cuevas del Valle","ine":"05066"},"geometry":{"type":"Polygon","coordinates":[[[-5.0645,40.2832],[-5.0578,40.3091],[-5.0151,40.322],[-5.0016,40.2945],[-5.0061,40.2687],[-5.0488,40.2832],[-5.0645,40.2832]]]}},{"type":"Feature","id":"05067","properties":{"nombre":"Chamartín","ine":"05067"},"geometry":{"type":"Polygon","coordinates":[[[-4.9678,40.7275],[-4.9633,40.7453],[-4.9453,40.7453],[-4.9251,40.7227],[-4.9431,40.6968],[-4.9588,40.6888],[-4.9701,40.7114],[-4.9678,40.7275]]]}},{"type":"Feature","id":"05073","properties":{"nombre":"Flores de Ávila","ine":"05073"},"geometry":{"type":"Polygon","coordinates":[[[-5.1275,40.9489],[-5.1275,40.9537],[-5.1163,40.9537],[-5.0983,40.978],[-5.0645,40.9763],[-5.0511,40.9812],[-5.0376,40.9747],[-5.0511,40.9666],[-5.0398,40.9424],[-5.0645,40.9182],[-5.0623,40.9101],[-5.0848,40.9085],[-5.1095,40.8956],[-5.1163,40.902],[-5.1118,40.9149],[-5.1275,40.9489]]]}},{"type":"Feature","id":"05074","properties":{"nombre":"Fontiveros","ine":"05074"},"geometry":{"type":"Polygon","coordinates":[[[-5.0083,40.9117],[-5.0038,40.9473],[-4.9971,40.9521],[-4.9521,40.9424],[-4.9408,40.9473],[-4.9161,40.9327],[-4.9026,40.9036],[-4.9566,40.9004],[-4.9723,40.902],[-4.9926,40.9149],[-5.0083,40.9117]]]}},{"type":"Feature","id":"05118","properties":{"nombre":"Mancera de Arriba","ine":"05118"},"geometry":{"type":"Polygon","coordinates":[[[-5.1793,40.797],[-5.177,40.8051],[-5.159,40.8196],[-5.1298,40.8067],[-5.1163,40.7905],[-5.132,40.7857],[-5.1388,40.7712],[-5.1568,40.7679],[-5.1793,40.797]]]}},{"type":"Feature","id":"05075","properties":{"nombre":"Fresnedilla","ine":"05075"},"geometry":{"type":"Polygon","coordinates":[[[-4.6867,40.2493],[-4.6687,40.2509],[-4.6395,40.2687],[-4.617,40.2332],[-4.6732,40.2089],[-4.6799,40.2073],[-4.6867,40.2105],[-4.6867,40.2493]]]}},{"type":"Feature","id":"05076","properties":{"nombre":"El Fresno","ine":"05076"},"geometry":{"type":"Polygon","coordinates":[[[-4.7879,40.6112],[-4.7722,40.6209],[-4.7722,40.6354],[-4.7384,40.629],[-4.7204,40.6435],[-4.7294,40.6112],[-4.7429,40.6064],[-4.7857,40.6047],[-4.7879,40.6112]]]}},{"type":"Feature","id":"05079","properties":{"nombre":"Gallegos de Altamiros","ine":"05079"},"geometry":{"type":"Polygon","coordinates":[[[-4.9431,40.6968],[-4.9251,40.7227],[-4.9094,40.7275],[-4.8936,40.7275],[-4.8801,40.7114],[-4.8914,40.6855],[-4.9251,40.6742],[-4.9431,40.6968]]]}},{"type":"Feature","id":"05080","properties":{"nombre":"Gallegos de Sobrinos","ine":"05080"},"geometry":{"type":"Polygon","coordinates":[[[-5.1703,40.7356],[-5.1455,40.7308],[-5.114,40.7308],[-5.0938,40.713],[-5.069,40.7017],[-5.069,40.7017],[-5.0713,40.7017],[-5.0915,40.7049],[-5.1253,40.6936],[-5.1275,40.6726],[-5.1365,40.6629],[-5.1523,40.6613],[-5.1613,40.6758],[-5.1793,40.6855],[-5.177,40.7001],[-5.1905,40.7001],[-5.1972,40.7243],[-5.1703,40.7356]]]}},{"type":"Feature","id":"05081","properties":{"nombre":"Garganta del Villar","ine":"05081"},"geometry":{"type":"Polygon","coordinates":[[[-5.1478,40.4577],[-5.1343,40.4755],[-5.0938,40.4707],[-5.0915,40.4432],[-5.1073,40.4286],[-5.1253,40.4254],[-5.1478,40.4577]]]}},{"type":"Feature","id":"05082","properties":{"nombre":"Gavilanes","ine":"05082"},"geometry":{"type":"Polygon","coordinates":[[[-4.9094,40.301],[-4.8801,40.3139],[-4.8576,40.2994],[-4.8419,40.2784],[-4.8554,40.259],[-4.8464,40.2509],[-4.8351,40.2121],[-4.8486,40.2089],[-4.8711,40.2558],[-4.9004,40.28],[-4.9094,40.301]]]}},{"type":"Feature","id":"05083","properties":{"nombre":"Gemuño","ine":"05083"},"geometry":{"type":"Polygon","coordinates":[[[-4.8126,40.5821],[-4.7992,40.5902],[-4.7857,40.6047],[-4.7429,40.6064],[-4.7474,40.5837],[-4.7677,40.5741],[-4.7947,40.5611],[-4.8126,40.5821]]]}},{"type":"Feature","id":"05086","properties":{"nombre":"Gimialcón","ine":"05086"},"geometry":{"type":"Polygon","coordinates":[[[-5.1635,40.8681],[-5.1275,40.9004],[-5.1163,40.902],[-5.1095,40.8956],[-5.114,40.8891],[-5.1028,40.8568],[-5.1005,40.8439],[-5.1365,40.8487],[-5.1635,40.8649],[-5.1635,40.8681]]]}},{"type":"Feature","id":"05087","properties":{"nombre":"Gotarrendura","ine":"05087"},"geometry":{"type":"Polygon","coordinates":[[[-4.7564,40.8245],[-4.7407,40.8422],[-4.7182,40.8439],[-4.7024,40.8309],[-4.7114,40.8164],[-4.7384,40.8115],[-4.7564,40.8245]]]}},{"type":"Feature","id":"05088","properties":{"nombre":"Grandes y San Martín","ine":"05088"},"geometry":{"type":"Polygon","coordinates":[[[-4.9993,40.7744],[-4.9768,40.7776],[-4.9678,40.776],[-4.9363,40.7566],[-4.9453,40.7453],[-4.9633,40.7453],[-4.9993,40.7663],[-4.9993,40.7744]]]}},{"type":"Feature","id":"05092","properties":{"nombre":"Hernansancho","ine":"05092"},"geometry":{"type":"Polygon","coordinates":[[[-4.7632,40.8681],[-4.7384,40.8762],[-4.7204,40.8762],[-4.6867,40.8584],[-4.6754,40.8455],[-4.6912,40.8358],[-4.7024,40.8309],[-4.7182,40.8439],[-4.7407,40.8422],[-4.7632,40.8681]]]}},{"type":"Feature","id":"05093","properties":{"nombre":"Herradón de Pinares","ine":"05093"},"geometry":{"type":"Polygon","coordinates":[[[-4.6012,40.5676],[-4.6012,40.5821],[-4.581,40.5934],[-4.5697,40.6096],[-4.5248,40.6112],[-4.5135,40.6225],[-4.4798,40.6193],[-4.4888,40.6128],[-4.4865,40.5837],[-4.5585,40.5482],[-4.6012,40.5676]]]}},{"type":"Feature","id":"05094","properties":{"nombre":"Herreros de Suso","ine":"05094"},"geometry":{"type":"Polygon","coordinates":[[[-5.0848,40.8196],[-5.0511,40.8309],[-5.0263,40.8293],[-5.0151,40.7857],[-5.0106,40.7809],[-5.0443,40.7712],[-5.06,40.7792],[-5.0533,40.797],[-5.0848,40.8196]]]}},{"type":"Feature","id":"05095","properties":{"nombre":"Higuera de las Dueñas","ine":"05095"},"geometry":{"type":"Polygon","coordinates":[[[-4.6732,40.2089],[-4.617,40.2332],[-4.6395,40.2687],[-4.5945,40.2509],[-4.5697,40.2574],[-4.5585,40.2348],[-4.5652,40.2186],[-4.5787,40.217],[-4.617,40.1992],[-4.6575,40.1992],[-4.6732,40.2089]]]}},{"type":"Feature","id":"05096","properties":{"nombre":"La Hija de Dios","ine":"05096"},"geometry":{"type":"Polygon","coordinates":[[[-4.9926,40.5062],[-4.9881,40.5143],[-4.9768,40.5401],[-4.9521,40.5401],[-4.9566,40.5256],[-4.9453,40.4981],[-4.9791,40.4965],[-4.9926,40.5062]]]}},{"type":"Feature","id":"05097","properties":{"nombre":"La Horcajada","ine":"05097"},"geometry":{"type":"Polygon","coordinates":[[[-5.5144,40.4012],[-5.5031,40.4222],[-5.5121,40.4286],[-5.5211,40.4464],[-5.5076,40.4626],[-5.4806,40.4561],[-5.4649,40.4658],[-5.4334,40.469],[-5.4267,40.4416],[-5.4109,40.4319],[-5.4312,40.4189],[-5.4604,40.406],[-5.4716,40.4093],[-5.4851,40.3963],[-5.4964,40.385],[-5.5144,40.4012]]]}},{"type":"Feature","id":"05099","properties":{"nombre":"Horcajo de las Torres","ine":"05099"},"geometry":{"type":"Polygon","coordinates":[[[-5.1523,41.0814],[-5.1298,41.1056],[-5.1028,41.1072],[-5.0533,41.0749],[-5.0623,41.0636],[-5.1073,41.0297],[-5.141,41.0377],[-5.1455,41.0442],[-5.1523,41.0814]]]}},{"type":"Feature","id":"05100","properties":{"nombre":"El Hornillo","ine":"05100"},"geometry":{"type":"Polygon","coordinates":[[[-5.1815,40.2606],[-5.141,40.2865],[-5.123,40.2929],[-5.0983,40.2525],[-5.0803,40.2445],[-5.0915,40.2348],[-5.1163,40.2332],[-5.132,40.2493],[-5.1545,40.2606],[-5.1815,40.2606]]]}},{"type":"Feature","id":"05101","properties":{"nombre":"Hoyocasero","ine":"05101"},"geometry":{"type":"Polygon","coordinates":[[[-5.0331,40.4222],[-5.0196,40.4319],[-4.9836,40.4529],[-4.9566,40.4319],[-4.9521,40.4189],[-4.9521,40.3543],[-4.9971,40.3721],[-5.0151,40.3705],[-5.0331,40.4222]]]}},{"type":"Feature","id":"05102","properties":{"nombre":"El Hoyo de Pinares","ine":"05102"},"geometry":{"type":"Polygon","coordinates":[[[-4.5,40.5094],[-4.491,40.532],[-4.4775,40.5288],[-4.4483,40.5417],[-4.3808,40.5401],[-4.3448,40.5304],[-4.3223,40.5175],[-4.3268,40.5094],[-4.3178,40.4577],[-4.3246,40.4593],[-4.3403,40.469],[-4.3426,40.4852],[-4.3786,40.469],[-4.4258,40.4852],[-4.4325,40.4949],[-4.4663,40.5078],[-4.5,40.5094]]]}},{"type":"Feature","id":"05105","properties":{"nombre":"Hoyos del Espino","ine":"05105"},"geometry":{"type":"Polygon","coordinates":[[[-5.2062,40.3979],[-5.1815,40.3915],[-5.168,40.4012],[-5.1545,40.3366],[-5.141,40.3139],[-5.141,40.2865],[-5.1815,40.2606],[-5.1927,40.2671],[-5.204,40.3059],[-5.204,40.3446],[-5.1905,40.343],[-5.1905,40.3721],[-5.2062,40.3979]]]}},{"type":"Feature","id":"05106","properties":{"nombre":"Hoyos de Miguel Muñoz","ine":"05106"},"geometry":{"type":"Polygon","coordinates":[[[-5.1028,40.4028],[-5.0825,40.4012],[-5.0645,40.4109],[-5.0331,40.3883],[-5.0803,40.3705],[-5.0848,40.3899],[-5.1028,40.4028]]]}},{"type":"Feature","id":"05107","properties":{"nombre":"Hurtumpascual","ine":"05107"},"geometry":{"type":"Polygon","coordinates":[[[-5.1365,40.6629],[-5.1275,40.6726],[-5.1253,40.6936],[-5.0915,40.7049],[-5.0713,40.7017],[-5.087,40.6823],[-5.0848,40.6678],[-5.1095,40.6548],[-5.123,40.6548],[-5.1343,40.6548],[-5.1365,40.6629]]]}},{"type":"Feature","id":"05108","properties":{"nombre":"Junciana","ine":"05108"},"geometry":{"type":"Polygon","coordinates":[[[-5.5818,40.3818],[-5.5728,40.448],[-5.5728,40.448],[-5.5459,40.4238],[-5.5571,40.3931],[-5.5728,40.3786],[-5.5818,40.3802],[-5.5818,40.3818]]]}},{"type":"Feature","id":"05110","properties":{"nombre":"Lanzahíta","ine":"05110"},"geometry":{"type":"Polygon","coordinates":[[[-4.9746,40.2073],[-4.9453,40.2235],[-4.9026,40.217],[-4.9094,40.2008],[-4.8959,40.1847],[-4.9251,40.1701],[-4.9543,40.154],[-4.9588,40.1556],[-4.9678,40.1782],[-4.9746,40.2073]]]}},{"type":"Feature","id":"05112","properties":{"nombre":"El Losar del Barco","ine":"05112"},"geometry":{"type":"Polygon","coordinates":[[[-5.5728,40.3786],[-5.5571,40.3931],[-5.5459,40.4238],[-5.5121,40.4286],[-5.5031,40.4222],[-5.5144,40.4012],[-5.5256,40.3883],[-5.5189,40.3721],[-5.5459,40.3705],[-5.5728,40.3786]]]}},{"type":"Feature","id":"05113","properties":{"nombre":"Los Llanos de Tormes","ine":"05113"},"geometry":{"type":"Polygon","coordinates":[[[-5.5211,40.3366],[-5.4874,40.3511],[-5.4671,40.3543],[-5.4491,40.3495],[-5.4267,40.3366],[-5.4312,40.3252],[-5.4694,40.3269],[-5.4941,40.3188],[-5.5009,40.3252],[-5.5144,40.3301],[-5.5211,40.3366]]]}},{"type":"Feature","id":"05114","properties":{"nombre":"Madrigal de las Altas Torres","ine":"05114"},"geometry":{"type":"Polygon","coordinates":[[[-5.1298,41.1056],[-5.1253,41.1314],[-5.1005,41.1476],[-5.0758,41.1395],[-5.0488,41.1428],[-5.0218,41.1541],[-5.0038,41.1476],[-4.9926,41.1201],[-4.9566,41.1314],[-4.9701,41.1153],[-4.9678,41.1024],[-4.9408,41.0943],[-4.9453,41.0862],[-4.9588,41.0717],[-5.0083,41.0442],[-5.0218,41.0377],[-5.0286,41.049],[-5.0623,41.0636],[-5.0533,41.0749],[-5.1028,41.1072],[-5.1298,41.1056]]]}},{"type":"Feature","id":"05119","properties":{"nombre":"Manjabálago y Ortigosa de Rioalmar","ine":"05119"},"geometry":{"type":"Polygon","coordinates":[[[-5.1095,40.6548],[-5.0848,40.6678],[-5.087,40.6823],[-5.0713,40.7017],[-5.069,40.7017],[-5.0511,40.6952],[-5.06,40.6855],[-5.0376,40.6661],[-5.0533,40.6645],[-5.0938,40.6419],[-5.1095,40.6548]]]}},{"type":"Feature","id":"05120","properties":{"nombre":"Marlín","ine":"05120"},"geometry":{"type":"Polygon","coordinates":[[[-4.8419,40.7114],[-4.8351,40.7243],[-4.8149,40.7227],[-4.8104,40.7178],[-4.8126,40.6952],[-4.8329,40.7001],[-4.8419,40.7114]]]}},{"type":"Feature","id":"05115","properties":{"nombre":"Maello","ine":"05115"},"geometry":{"type":"Polygon","coordinates":[[[-4.6215,40.7841],[-4.6305,40.8002],[-4.6125,40.8067],[-4.6192,40.8212],[-4.5855,40.8293],[-4.572,40.8568],[-4.5585,40.8859],[-4.5338,40.8649],[-4.5585,40.839],[-4.5472,40.8261],[-4.4978,40.8342],[-4.473,40.8002],[-4.482,40.7922],[-4.5293,40.7873],[-4.554,40.8035],[-4.5697,40.7776],[-4.5945,40.7744],[-4.6215,40.7841]]]}},{"type":"Feature","id":"05121","properties":{"nombre":"Martiherrero","ine":"05121"},"geometry":{"type":"Polygon","coordinates":[[[-4.8329,40.6904],[-4.8329,40.7001],[-4.8126,40.6952],[-4.7947,40.7081],[-4.7789,40.7081],[-4.7407,40.6775],[-4.7519,40.6581],[-4.7902,40.6597],[-4.8284,40.6936],[-4.8329,40.6904]]]}},{"type":"Feature","id":"05122","properties":{"nombre":"Martínez","ine":"05122"},"geometry":{"type":"Polygon","coordinates":[[[-5.3974,40.6144],[-5.3817,40.6306],[-5.3659,40.6484],[-5.3479,40.6484],[-5.3187,40.6354],[-5.3299,40.6161],[-5.3502,40.6209],[-5.3704,40.6064],[-5.3974,40.6144]]]}},{"type":"Feature","id":"05123","properties":{"nombre":"Mediana de Voltoya","ine":"05123"},"geometry":{"type":"Polygon","coordinates":[[[-4.5765,40.6807],[-4.5742,40.7114],[-4.5765,40.7388],[-4.554,40.7388],[-4.5293,40.6936],[-4.5383,40.6839],[-4.554,40.6888],[-4.5765,40.6807]]]}},{"type":"Feature","id":"05124","properties":{"nombre":"Medinilla","ine":"05124"},"geometry":{"type":"Polygon","coordinates":[[[-5.6403,40.4513],[-5.6223,40.4658],[-5.5908,40.4674],[-5.5616,40.4771],[-5.5594,40.4674],[-5.5728,40.448],[-5.5728,40.448],[-5.6223,40.4254],[-5.6358,40.4254],[-5.6403,40.4513]]]}},{"type":"Feature","id":"05125","properties":{"nombre":"Mengamuñoz","ine":"05125"},"geometry":{"type":"Polygon","coordinates":[[[-5.0376,40.4868],[-5.0196,40.5175],[-5.0038,40.5272],[-4.9881,40.5143],[-4.9926,40.5062],[-5.0106,40.4755],[-5.0376,40.4868]]]}},{"type":"Feature","id":"05128","properties":{"nombre":"Mingorría","ine":"05128"},"geometry":{"type":"Polygon","coordinates":[[[-4.7227,40.7712],[-4.7047,40.8019],[-4.6844,40.8002],[-4.6844,40.7905],[-4.6597,40.7744],[-4.6395,40.7695],[-4.6327,40.7615],[-4.653,40.7356],[-4.6889,40.734],[-4.6912,40.7566],[-4.7227,40.7712]]]}},{"type":"Feature","id":"05129","properties":{"nombre":"El Mirón","ine":"05129"},"geometry":{"type":"Polygon","coordinates":[[[-5.4334,40.5337],[-5.4267,40.5563],[-5.4312,40.5676],[-5.3997,40.5983],[-5.3592,40.5611],[-5.3772,40.5627],[-5.3704,40.5353],[-5.3704,40.5304],[-5.4019,40.5224],[-5.4334,40.5337]]]}},{"type":"Feature","id":"05130","properties":{"nombre":"Mironcillo","ine":"05130"},"geometry":{"type":"Polygon","coordinates":[[[-4.8374,40.5692],[-4.8284,40.5821],[-4.8126,40.5821],[-4.7947,40.5611],[-4.8171,40.5498],[-4.8059,40.5353],[-4.8306,40.524],[-4.8441,40.5304],[-4.8351,40.5434],[-4.8374,40.5692]]]}},{"type":"Feature","id":"05131","properties":{"nombre":"Mirueña de los Infanzones","ine":"05131"},"geometry":{"type":"Polygon","coordinates":[[[-5.1455,40.7308],[-5.1275,40.7388],[-5.1253,40.7518],[-5.0848,40.7647],[-5.0803,40.7582],[-5.0466,40.7566],[-5.0443,40.7372],[-5.0556,40.7017],[-5.069,40.7017],[-5.0938,40.713],[-5.114,40.7308],[-5.1455,40.7308]]]}},{"type":"Feature","id":"05232","properties":{"nombre":"La Serrada","ine":"05232"},"geometry":{"type":"Polygon","coordinates":[[[-4.8036,40.6274],[-4.8036,40.6451],[-4.7834,40.6468],[-4.7722,40.6354],[-4.7722,40.6209],[-4.7879,40.6112],[-4.8036,40.6274]]]}},{"type":"Feature","id":"05132","properties":{"nombre":"Mombeltrán","ine":"05132"},"geometry":{"type":"MultiPolygon","coordinates":[[[[-4.9251,40.1701],[-4.9229,40.1411],[-4.9453,40.133],[-4.9498,40.133],[-4.9543,40.154],[-4.9251,40.1701]]],[[[-4.9678,40.1782],[-4.9588,40.1556],[-4.9746,40.1556],[-4.9678,40.1782]]],[[[-4.9633,40.2235],[-4.9453,40.2235],[-4.9746,40.2073],[-4.9746,40.2235],[-4.9633,40.2235]]],[[[-5.0061,40.2687],[-5.0016,40.2687],[-4.9971,40.2622],[-5.0038,40.2622],[-5.0331,40.2186],[-5.0173,40.196],[-4.9881,40.1895],[-4.9881,40.1621],[-5.0106,40.1604],[-5.0533,40.2138],[-5.0466,40.2235],[-5.0556,40.2477],[-5.0533,40.2655],[-5.0645,40.2832],[-5.0488,40.2832],[-5.0061,40.2687]]]]}},{"type":"Feature","id":"05247","properties":{"nombre":"La Torre","ine":"05247"},"geometry":{"type":"Polygon","coordinates":[[[-5.0218,40.6274],[-5.0106,40.6419],[-4.9791,40.6548],[-4.9318,40.6629],[-4.9408,40.65],[-4.9139,40.6451],[-4.9049,40.629],[-4.9251,40.6128],[-4.9611,40.6144],[-4.9633,40.5983],[-4.9453,40.5837],[-4.9566,40.5741],[-4.9408,40.5547],[-4.9521,40.5401],[-4.9768,40.5401],[-4.9813,40.5514],[-5.0038,40.5563],[-5.0106,40.5644],[-4.9836,40.5773],[-4.9836,40.6193],[-5.0016,40.6161],[-5.0218,40.6274]]]}},{"type":"Feature","id":"05249","properties":{"nombre":"Umbrías","ine":"05249"},"geometry":{"type":"Polygon","coordinates":[[[-5.5998,40.3123],[-5.5728,40.3382],[-5.5549,40.3252],[-5.5616,40.3026],[-5.5661,40.2913],[-5.5773,40.2929],[-5.5998,40.3123]]]}},{"type":"Feature","id":"05133","properties":{"nombre":"Monsalupe","ine":"05133"},"geometry":{"type":"Polygon","coordinates":[[[-4.8171,40.7728],[-4.8104,40.7873],[-4.8014,40.7938],[-4.7609,40.7792],[-4.7609,40.7615],[-4.7789,40.7453],[-4.7969,40.7534],[-4.8149,40.7598],[-4.8171,40.7728]]]}},{"type":"Feature","id":"05134","properties":{"nombre":"Moraleja de Matacabras","ine":"05134"},"geometry":{"type":"Polygon","coordinates":[[[-4.9588,41.1395],[-4.9498,41.1411],[-4.9116,41.1201],[-4.9296,41.1024],[-4.9408,41.0943],[-4.9678,41.1024],[-4.9701,41.1153],[-4.9566,41.1314],[-4.9588,41.1395]]]}},{"type":"Feature","id":"05143","properties":{"nombre":"Muñotello","ine":"05143"},"geometry":{"type":"Polygon","coordinates":[[[-5.0623,40.5207],[-5.0556,40.5466],[-5.0308,40.5724],[-5.0106,40.5644],[-5.0038,40.5563],[-5.0173,40.532],[-5.0038,40.5272],[-5.0196,40.5175],[-5.0623,40.5207]]]}},{"type":"Feature","id":"05135","properties":{"nombre":"Muñana","ine":"05135"},"geometry":{"type":"Polygon","coordinates":[[[-5.0758,40.608],[-5.069,40.6128],[-5.0218,40.6274],[-5.0016,40.6161],[-4.9836,40.6193],[-4.9836,40.5773],[-5.0106,40.5644],[-5.0308,40.5724],[-5.0443,40.5741],[-5.0578,40.5951],[-5.0758,40.608]]]}},{"type":"Feature","id":"05136","properties":{"nombre":"Muñico","ine":"05136"},"geometry":{"type":"Polygon","coordinates":[[[-5.069,40.7017],[-5.069,40.7017],[-5.0556,40.7017],[-5.0443,40.7372],[-5.0241,40.713],[-5.0083,40.7065],[-5.0263,40.6871],[-5.0511,40.6952],[-5.069,40.7017]]]}},{"type":"Feature","id":"05138","properties":{"nombre":"Muñogalindo","ine":"05138"},"geometry":{"type":"Polygon","coordinates":[[[-4.9386,40.5773],[-4.9094,40.6015],[-4.9251,40.6128],[-4.9049,40.629],[-4.8756,40.6064],[-4.8824,40.5902],[-4.8914,40.5773],[-4.9386,40.5773]]]}},{"type":"Feature","id":"05139","properties":{"nombre":"Muñogrande","ine":"05139"},"geometry":{"type":"MultiPolygon","coordinates":[[[[-4.9543,40.7938],[-4.9543,40.7938],[-4.9543,40.7938],[-4.9543,40.7938]]],[[[-4.9678,40.8229],[-4.9588,40.8196],[-4.9363,40.8342],[-4.9139,40.8342],[-4.8981,40.8099],[-4.9004,40.8083],[-4.9071,40.8099],[-4.9386,40.8099],[-4.9723,40.7889],[-4.9746,40.8148],[-4.9678,40.8229]]]]}},{"type":"Feature","id":"05144","properties":{"nombre":"Narrillos del Álamo","ine":"05144"},"geometry":{"type":"Polygon","coordinates":[[[-5.5256,40.5401],[-5.5279,40.5547],[-5.5166,40.5773],[-5.5099,40.5902],[-5.4986,40.5821],[-5.4469,40.5789],[-5.4154,40.6096],[-5.4087,40.6096],[-5.3997,40.5983],[-5.4312,40.5676],[-5.5076,40.5482],[-5.5256,40.5401]]]}},{"type":"Feature","id":"05145","properties":{"nombre":"Narrillos del Rebollar","ine":"05145"},"geometry":{"type":"Polygon","coordinates":[[[-4.9926,40.6888],[-4.9701,40.6758],[-4.9588,40.6888],[-4.9431,40.6968],[-4.9251,40.6742],[-4.9318,40.6629],[-4.9791,40.6548],[-4.9926,40.6888]]]}},{"type":"Feature","id":"05151","properties":{"nombre":"Navacepedilla de Corneja","ine":"05151"},"geometry":{"type":"Polygon","coordinates":[[[-5.186,40.4593],[-5.2085,40.4803],[-5.1927,40.4868],[-5.186,40.5046],[-5.168,40.5078],[-5.1568,40.5191],[-5.1208,40.5062],[-5.1343,40.4755],[-5.1725,40.4561],[-5.186,40.4593]]]}},{"type":"Feature","id":"05147","properties":{"nombre":"Narros del Castillo","ine":"05147"},"geometry":{"type":"Polygon","coordinates":[[[-5.1028,40.8568],[-5.0938,40.8665],[-5.0466,40.881],[-5.0308,40.8568],[-5.0128,40.8406],[-5.0263,40.8293],[-5.0511,40.8309],[-5.0848,40.8196],[-5.1005,40.8439],[-5.1028,40.8568]]]}},{"type":"Feature","id":"05148","properties":{"nombre":"Narros del Puerto","ine":"05148"},"geometry":{"type":"Polygon","coordinates":[[[-5.0038,40.5563],[-4.9813,40.5514],[-4.9768,40.5401],[-4.9881,40.5143],[-5.0038,40.5272],[-5.0173,40.532],[-5.0038,40.5563]]]}},{"type":"Feature","id":"05149","properties":{"nombre":"Narros de Saldueña","ine":"05149"},"geometry":{"type":"Polygon","coordinates":[[[-4.8936,40.8939],[-4.8644,40.902],[-4.8576,40.8503],[-4.8846,40.8697],[-4.8936,40.8939]]]}},{"type":"Feature","id":"05152","properties":{"nombre":"Nava de Arévalo","ine":"05152"},"geometry":{"type":"Polygon","coordinates":[[[-4.8284,40.986],[-4.8239,41.0216],[-4.7857,41.0183],[-4.7677,41.0377],[-4.7497,41.0394],[-4.7204,41.0167],[-4.7272,40.999],[-4.7114,40.9957],[-4.7182,40.9796],[-4.7429,40.9553],[-4.7744,40.9553],[-4.8036,40.9877],[-4.8284,40.986]]]}},{"type":"Feature","id":"05153","properties":{"nombre":"Nava del Barco","ine":"05153"},"geometry":{"type":"Polygon","coordinates":[[[-5.5931,40.2218],[-5.5886,40.2315],[-5.5863,40.259],[-5.5661,40.2913],[-5.5616,40.3026],[-5.5256,40.3075],[-5.5166,40.2913],[-5.5301,40.2671],[-5.5594,40.2509],[-5.5616,40.2283],[-5.5931,40.2218]]]}},{"type":"Feature","id":"05158","properties":{"nombre":"Navalmoral","ine":"05158"},"geometry":{"type":"Polygon","coordinates":[[[-4.7834,40.4803],[-4.7744,40.4884],[-4.7204,40.4997],[-4.7047,40.469],[-4.7047,40.4383],[-4.7407,40.4319],[-4.7834,40.4319],[-4.7902,40.4416],[-4.7834,40.4803]]]}},{"type":"Feature","id":"05154","properties":{"nombre":"Navadijos","ine":"05154"},"geometry":{"type":"Polygon","coordinates":[[[-5.1275,40.4028],[-5.1253,40.4254],[-5.1073,40.4286],[-5.0915,40.4432],[-5.0623,40.4383],[-5.0511,40.4254],[-5.0645,40.4109],[-5.0825,40.4012],[-5.1028,40.4028],[-5.1275,40.4028]]]}},{"type":"Feature","id":"05155","properties":{"nombre":"Navaescurial","ine":"05155"},"geometry":{"type":"Polygon","coordinates":[[[-5.2917,40.4787],[-5.2512,40.4933],[-5.24,40.4949],[-5.231,40.4739],[-5.2085,40.4545],[-5.231,40.44],[-5.2782,40.4351],[-5.2872,40.4448],[-5.3142,40.4674],[-5.2917,40.4787]]]}},{"type":"Feature","id":"05159","properties":{"nombre":"Navalonguilla","ine":"05159"},"geometry":{"type":"Polygon","coordinates":[[[-5.5976,40.217],[-5.5931,40.2218],[-5.5616,40.2283],[-5.5594,40.2509],[-5.5301,40.2671],[-5.5166,40.2913],[-5.4761,40.2978],[-5.4649,40.2945],[-5.4289,40.2525],[-5.4401,40.2332],[-5.4671,40.2235],[-5.4716,40.2073],[-5.4874,40.2041],[-5.4964,40.1992],[-5.5189,40.1976],[-5.5301,40.1944],[-5.5976,40.217]]]}},{"type":"Feature","id":"05156","properties":{"nombre":"Navahondilla","ine":"05156"},"geometry":{"type":"Polygon","coordinates":[[[-4.527,40.3446],[-4.4865,40.3705],[-4.473,40.3689],[-4.473,40.3479],[-4.4618,40.3398],[-4.4528,40.3333],[-4.455,40.3188],[-4.473,40.3204],[-4.5045,40.3155],[-4.527,40.3446]]]}},{"type":"Feature","id":"05157","properties":{"nombre":"Navalacruz","ine":"05157"},"geometry":{"type":"Polygon","coordinates":[[[-5.0241,40.4529],[-4.9836,40.482],[-4.9588,40.4755],[-4.8981,40.482],[-4.9049,40.4561],[-4.8801,40.448],[-4.8711,40.427],[-4.9566,40.4319],[-4.9836,40.4529],[-5.0196,40.4319],[-5.0241,40.4529]]]}},{"type":"Feature","id":"05160","properties":{"nombre":"Navalosa","ine":"05160"},"geometry":{"type":"Polygon","coordinates":[[[-4.9521,40.3543],[-4.9521,40.4189],[-4.8959,40.4125],[-4.8914,40.3963],[-4.8554,40.3963],[-4.8644,40.3915],[-4.8914,40.3915],[-4.9229,40.3608],[-4.9251,40.3543],[-4.9431,40.3543],[-4.9498,40.3543],[-4.9521,40.3543]]]}},{"type":"Feature","id":"05161","properties":{"nombre":"Navalperal de Pinares","ine":"05161"},"geometry":{"type":"Polygon","coordinates":[[[-4.4865,40.5837],[-4.4888,40.6128],[-4.4798,40.6193],[-4.4663,40.6354],[-4.419,40.6338],[-4.3988,40.5902],[-4.4235,40.5563],[-4.4505,40.5498],[-4.4708,40.5789],[-4.4865,40.5837]]]}},{"type":"Feature","id":"05174","properties":{"nombre":"Orbita","ine":"05174"},"geometry":{"type":"Polygon","coordinates":[[[-4.6957,41.0006],[-4.6687,40.999],[-4.6305,41.0119],[-4.6237,41.007],[-4.617,41.0038],[-4.6125,40.9877],[-4.6327,40.9925],[-4.6912,40.9731],[-4.6934,40.9844],[-4.6957,41.0006]]]}},{"type":"Feature","id":"05162","properties":{"nombre":"Navalperal de Tormes","ine":"05162"},"geometry":{"type":"Polygon","coordinates":[[[-5.3254,40.364],[-5.3187,40.4044],[-5.2985,40.4141],[-5.2895,40.3979],[-5.2985,40.385],[-5.2895,40.3608],[-5.267,40.3543],[-5.2377,40.3236],[-5.2377,40.2752],[-5.2625,40.2509],[-5.2737,40.2477],[-5.2782,40.2477],[-5.2917,40.3188],[-5.3164,40.3446],[-5.3119,40.3624],[-5.3254,40.364]]]}},{"type":"Feature","id":"05163","properties":{"nombre":"Navaluenga","ine":"05163"},"geometry":{"type":"Polygon","coordinates":[[[-4.7407,40.4319],[-4.7047,40.4383],[-4.662,40.4254],[-4.644,40.4141],[-4.644,40.3963],[-4.626,40.4012],[-4.6192,40.3915],[-4.6305,40.3672],[-4.6822,40.3608],[-4.7272,40.3576],[-4.7519,40.3737],[-4.7542,40.3915],[-4.7407,40.4319]]]}},{"type":"Feature","id":"05164","properties":{"nombre":"Navaquesera","ine":"05164"},"geometry":{"type":"Polygon","coordinates":[[[-4.9566,40.4319],[-4.8711,40.427],[-4.8959,40.4125],[-4.9521,40.4189],[-4.9566,40.4319]]]}},{"type":"Feature","id":"05165","properties":{"nombre":"Navarredonda de Gredos","ine":"05165"},"geometry":{"type":"Polygon","coordinates":[[[-5.168,40.4012],[-5.1275,40.4028],[-5.1028,40.4028],[-5.0848,40.3899],[-5.0803,40.3705],[-5.0668,40.3382],[-5.0623,40.3123],[-5.096,40.2945],[-5.123,40.2929],[-5.141,40.2865],[-5.141,40.3139],[-5.1545,40.3366],[-5.168,40.4012]]]}},{"type":"Feature","id":"05166","properties":{"nombre":"Navarredondilla","ine":"05166"},"geometry":{"type":"Polygon","coordinates":[[[-4.8801,40.448],[-4.8329,40.4561],[-4.8036,40.4513],[-4.7902,40.4335],[-4.8284,40.4189],[-4.8419,40.4303],[-4.8711,40.427],[-4.8801,40.448]]]}},{"type":"Feature","id":"05167","properties":{"nombre":"Navarrevisca","ine":"05167"},"geometry":{"type":"Polygon","coordinates":[[[-4.9251,40.3543],[-4.9229,40.3608],[-4.8914,40.3915],[-4.8644,40.3915],[-4.8374,40.3672],[-4.8351,40.3495],[-4.8126,40.3317],[-4.8261,40.3382],[-4.8576,40.3236],[-4.9251,40.3543]]]}},{"type":"Feature","id":"05168","properties":{"nombre":"Las Navas del Marqués","ine":"05168"},"geometry":{"type":"Polygon","coordinates":[[[-4.4235,40.5563],[-4.3988,40.5902],[-4.419,40.6338],[-4.3876,40.6354],[-4.3651,40.6371],[-4.3336,40.6371],[-4.3043,40.6387],[-4.2908,40.6274],[-4.2886,40.6064],[-4.2796,40.6047],[-4.2886,40.5644],[-4.3246,40.5466],[-4.3516,40.545],[-4.4146,40.5498],[-4.4235,40.5563]]]}},{"type":"Feature","id":"05169","properties":{"nombre":"Navatalgordo","ine":"05169"},"geometry":{"type":"Polygon","coordinates":[[[-4.8959,40.4125],[-4.8711,40.427],[-4.8419,40.4303],[-4.8284,40.4189],[-4.8126,40.3996],[-4.8396,40.3915],[-4.8554,40.3963],[-4.8914,40.3963],[-4.8959,40.4125]]]}},{"type":"Feature","id":"05170","properties":{"nombre":"Navatejares","ine":"05170"},"geometry":{"type":"Polygon","coordinates":[[[-5.5616,40.3026],[-5.5549,40.3252],[-5.5346,40.3446],[-5.5211,40.3366],[-5.5144,40.3301],[-5.5256,40.3075],[-5.5616,40.3026]]]}},{"type":"Feature","id":"05171","properties":{"nombre":"Neila de San Miguel","ine":"05171"},"geometry":{"type":"Polygon","coordinates":[[[-5.6831,40.4238],[-5.6403,40.4513],[-5.6358,40.4254],[-5.6538,40.4109],[-5.6831,40.4238]]]}},{"type":"Feature","id":"05178","properties":{"nombre":"Palacios de Goda","ine":"05178"},"geometry":{"type":"Polygon","coordinates":[[[-4.8149,41.104],[-4.8126,41.1298],[-4.7857,41.1444],[-4.7227,41.1492],[-4.7159,41.1331],[-4.7249,41.1234],[-4.7159,41.1072],[-4.7294,41.104],[-4.7407,41.0668],[-4.7744,41.0636],[-4.7834,41.0652],[-4.7879,41.0975],[-4.8149,41.104]]]}},{"type":"Feature","id":"05172","properties":{"nombre":"Niharra","ine":"05172"},"geometry":{"type":"Polygon","coordinates":[[[-4.8666,40.587],[-4.8689,40.6064],[-4.8261,40.6128],[-4.8149,40.5983],[-4.8284,40.5821],[-4.8374,40.5692],[-4.8666,40.587]]]}},{"type":"Feature","id":"05173","properties":{"nombre":"Ojos-Albos","ine":"05173"},"geometry":{"type":"Polygon","coordinates":[[[-4.554,40.7388],[-4.5495,40.7631],[-4.5248,40.7744],[-4.4978,40.7502],[-4.5,40.7405],[-4.482,40.7227],[-4.4595,40.7178],[-4.4708,40.692],[-4.518,40.6888],[-4.5293,40.6936],[-4.554,40.7388]]]}},{"type":"Feature","id":"05175","properties":{"nombre":"El Oso","ine":"05175"},"geometry":{"type":"Polygon","coordinates":[[[-4.8014,40.8778],[-4.7879,40.8826],[-4.7812,40.8697],[-4.7632,40.8681],[-4.7407,40.8422],[-4.7564,40.8245],[-4.7744,40.8196],[-4.7722,40.8277],[-4.8014,40.8616],[-4.8014,40.8778]]]}},{"type":"Feature","id":"05179","properties":{"nombre":"Papatrigo","ine":"05179"},"geometry":{"type":"Polygon","coordinates":[[[-4.8644,40.902],[-4.8441,40.9117],[-4.8126,40.8746],[-4.8239,40.8471],[-4.8509,40.8422],[-4.8576,40.8503],[-4.8644,40.902]]]}},{"type":"Feature","id":"05180","properties":{"nombre":"El Parral","ine":"05180"},"geometry":{"type":"Polygon","coordinates":[[[-5.0151,40.7857],[-5.0061,40.8002],[-4.9746,40.8148],[-4.9723,40.7889],[-4.9768,40.7776],[-4.9993,40.7744],[-5.0106,40.7809],[-5.0151,40.7857]]]}},{"type":"Feature","id":"05176","properties":{"nombre":"Padiernos","ine":"05176"},"geometry":{"type":"Polygon","coordinates":[[[-4.9139,40.6451],[-4.8689,40.6613],[-4.8329,40.6532],[-4.8396,40.6532],[-4.8194,40.6209],[-4.8239,40.6193],[-4.8261,40.6128],[-4.8689,40.6064],[-4.8666,40.587],[-4.8711,40.5886],[-4.8824,40.5902],[-4.8756,40.6064],[-4.9049,40.629],[-4.9139,40.6451]]]}},{"type":"Feature","id":"05177","properties":{"nombre":"Pajares de Adaja","ine":"05177"},"geometry":{"type":"Polygon","coordinates":[[[-4.6754,40.9343],[-4.6485,40.9489],[-4.6372,40.9473],[-4.6125,40.9198],[-4.6282,40.8972],[-4.6687,40.8907],[-4.6665,40.9133],[-4.6687,40.9263],[-4.6687,40.9263],[-4.6754,40.9343]]]}},{"type":"Feature","id":"05182","properties":{"nombre":"Pedro Bernardo","ine":"05182"},"geometry":{"type":"Polygon","coordinates":[[[-4.9633,40.2235],[-4.9723,40.2412],[-4.9543,40.259],[-4.9498,40.2768],[-4.9206,40.3026],[-4.9094,40.301],[-4.9004,40.28],[-4.8711,40.2558],[-4.8486,40.2089],[-4.8599,40.2025],[-4.8959,40.1847],[-4.9094,40.2008],[-4.9026,40.217],[-4.9453,40.2235],[-4.9633,40.2235]]]}},{"type":"Feature","id":"05183","properties":{"nombre":"Pedro-Rodríguez","ine":"05183"},"geometry":{"type":"Polygon","coordinates":[[[-4.8171,40.9263],[-4.8126,40.9424],[-4.7789,40.9537],[-4.7542,40.9489],[-4.7542,40.936],[-4.7834,40.923],[-4.8171,40.9263]]]}},{"type":"Feature","id":"05184","properties":{"nombre":"Peguerinos","ine":"05184"},"geometry":{"type":"Polygon","coordinates":[[[-4.3336,40.6371],[-4.3201,40.6484],[-4.2886,40.6532],[-4.2571,40.6516],[-4.2549,40.6613],[-4.2751,40.6775],[-4.2526,40.6888],[-4.1874,40.6952],[-4.1604,40.6904],[-4.1716,40.6807],[-4.1671,40.6484],[-4.1739,40.6306],[-4.1604,40.6241],[-4.2144,40.6064],[-4.2616,40.6047],[-4.2706,40.629],[-4.2908,40.6274],[-4.3043,40.6387],[-4.3336,40.6371]]]}},{"type":"Feature","id":"05185","properties":{"nombre":"Peñalba de Ávila","ine":"05185"},"geometry":{"type":"Polygon","coordinates":[[[-4.7609,40.7792],[-4.7452,40.7857],[-4.7384,40.8115],[-4.7114,40.8164],[-4.7024,40.8309],[-4.6912,40.8358],[-4.6754,40.8212],[-4.6912,40.8132],[-4.6844,40.8002],[-4.7047,40.8019],[-4.7227,40.7712],[-4.7317,40.7631],[-4.7609,40.7615],[-4.7609,40.7792]]]}},{"type":"Feature","id":"05186","properties":{"nombre":"Piedrahíta","ine":"05186"},"geometry":{"type":"Polygon","coordinates":[[[-5.3929,40.448],[-5.3839,40.4707],[-5.3637,40.4917],[-5.3389,40.4884],[-5.3007,40.4965],[-5.2917,40.4787],[-5.3142,40.4674],[-5.2872,40.4448],[-5.3232,40.448],[-5.3547,40.4593],[-5.3929,40.448]]]}},{"type":"Feature","id":"05187","properties":{"nombre":"Piedralaves","ine":"05187"},"geometry":{"type":"Polygon","coordinates":[[[-4.7722,40.3446],[-4.7272,40.3576],[-4.6822,40.3608],[-4.6844,40.3495],[-4.662,40.3252],[-4.6597,40.3042],[-4.7002,40.2881],[-4.6979,40.2816],[-4.7272,40.2735],[-4.7452,40.2962],[-4.7519,40.3301],[-4.7722,40.3446]]]}},{"type":"Feature","id":"05188","properties":{"nombre":"Poveda","ine":"05188"},"geometry":{"type":"Polygon","coordinates":[[[-5.1095,40.5854],[-5.096,40.5918],[-5.0645,40.5611],[-5.0803,40.5579],[-5.1095,40.5854]]]}},{"type":"Feature","id":"05189","properties":{"nombre":"Poyales del Hoyo","ine":"05189"},"geometry":{"type":"Polygon","coordinates":[[[-5.1658,40.1604],[-5.1748,40.1734],[-5.1478,40.175],[-5.1658,40.1604]]]}},{"type":"Feature","id":"05251","properties":{"nombre":"Vadillo de la Sierra","ine":"05251"},"geometry":{"type":"Polygon","coordinates":[[[-5.1882,40.6241],[-5.1613,40.6322],[-5.1343,40.6548],[-5.123,40.6548],[-5.1118,40.6306],[-5.096,40.629],[-5.069,40.6128],[-5.0758,40.608],[-5.096,40.5918],[-5.1095,40.5854],[-5.132,40.5724],[-5.1882,40.6241]]]}},{"type":"Feature","id":"05190","properties":{"nombre":"Pozanco","ine":"05190"},"geometry":{"type":"Polygon","coordinates":[[[-4.6844,40.8002],[-4.6912,40.8132],[-4.6754,40.8212],[-4.6575,40.8196],[-4.6395,40.8051],[-4.6597,40.7744],[-4.6844,40.7905],[-4.6844,40.8002]]]}},{"type":"Feature","id":"05191","properties":{"nombre":"Pradosegar","ine":"05191"},"geometry":{"type":"Polygon","coordinates":[[[-5.0803,40.5579],[-5.0645,40.5611],[-5.0556,40.5466],[-5.0623,40.5207],[-5.1028,40.5288],[-5.0803,40.5579]]]}},{"type":"Feature","id":"05192","properties":{"nombre":"Puerto Castilla","ine":"05192"},"geometry":{"type":"Polygon","coordinates":[[[-5.6921,40.2913],[-5.6381,40.3123],[-5.6043,40.3107],[-5.6133,40.2994],[-5.5886,40.2315],[-5.5931,40.2218],[-5.5976,40.217],[-5.6111,40.2154],[-5.6246,40.2477],[-5.6493,40.2493],[-5.6561,40.2703],[-5.6921,40.2913]]]}},{"type":"Feature","id":"05193","properties":{"nombre":"Rasueros","ine":"05193"},"geometry":{"type":"Polygon","coordinates":[[[-5.1073,41.0297],[-5.0623,41.0636],[-5.0286,41.049],[-5.0218,41.0377],[-5.0623,40.9957],[-5.0511,40.9812],[-5.0645,40.9763],[-5.0983,40.978],[-5.0893,40.9973],[-5.1073,41.0297]]]}},{"type":"Feature","id":"05194","properties":{"nombre":"Riocabado","ine":"05194"},"geometry":{"type":"Polygon","coordinates":[[[-4.8239,40.8471],[-4.8126,40.8746],[-4.8014,40.8778],[-4.8014,40.8616],[-4.7722,40.8277],[-4.7744,40.8196],[-4.8014,40.8051],[-4.8261,40.8293],[-4.8239,40.8471]]]}},{"type":"Feature","id":"05199","properties":{"nombre":"San Bartolomé de Béjar","ine":"05199"},"geometry":{"type":"Polygon","coordinates":[[[-5.6921,40.4222],[-5.6831,40.4238],[-5.6538,40.4109],[-5.6538,40.3931],[-5.6741,40.3479],[-5.6853,40.3559],[-5.6786,40.3866],[-5.6921,40.4222]]]}},{"type":"Feature","id":"05200","properties":{"nombre":"San Bartolomé de Corneja","ine":"05200"},"geometry":{"type":"Polygon","coordinates":[[[-5.3974,40.4868],[-5.3817,40.5062],[-5.3524,40.5046],[-5.3637,40.4917],[-5.3839,40.4707],[-5.3974,40.4868]]]}},{"type":"Feature","id":"05195","properties":{"nombre":"Riofrío","ine":"05195"},"geometry":{"type":"Polygon","coordinates":[[[-4.8306,40.524],[-4.8059,40.5353],[-4.8171,40.5498],[-4.7947,40.5611],[-4.7677,40.5741],[-4.7204,40.5773],[-4.7137,40.5644],[-4.6934,40.5627],[-4.6799,40.5401],[-4.6844,40.5337],[-4.7047,40.5256],[-4.7227,40.5401],[-4.7182,40.5175],[-4.7294,40.5078],[-4.7654,40.5046],[-4.8149,40.5127],[-4.8306,40.524]]]}},{"type":"Feature","id":"05196","properties":{"nombre":"Rivilla de Barajas","ine":"05196"},"geometry":{"type":"Polygon","coordinates":[[[-5.0466,40.881],[-5.0398,40.8972],[-5.0083,40.9117],[-4.9926,40.9149],[-4.9723,40.902],[-4.9993,40.8859],[-5.0061,40.8536],[-5.0038,40.8455],[-5.0128,40.8406],[-5.0308,40.8568],[-5.0466,40.881]]]}},{"type":"Feature","id":"05201","properties":{"nombre":"San Bartolomé de Pinares","ine":"05201"},"geometry":{"type":"Polygon","coordinates":[[[-4.5652,40.4981],[-4.5585,40.5482],[-4.4865,40.5837],[-4.4708,40.5789],[-4.4505,40.5498],[-4.4235,40.5563],[-4.4146,40.5498],[-4.3516,40.545],[-4.3246,40.5466],[-4.3223,40.5175],[-4.3448,40.5304],[-4.3808,40.5401],[-4.4483,40.5417],[-4.4775,40.5288],[-4.491,40.532],[-4.5,40.5094],[-4.5315,40.4868],[-4.5652,40.4981]]]}},{"type":"Feature","id":"05204","properties":{"nombre":"Sanchidrián","ine":"05204"},"geometry":{"type":"Polygon","coordinates":[[[-4.6282,40.8972],[-4.6125,40.9198],[-4.5585,40.9166],[-4.5517,40.9069],[-4.5585,40.8859],[-4.572,40.8568],[-4.5877,40.8713],[-4.608,40.8762],[-4.6147,40.8972],[-4.6282,40.8972]]]}},{"type":"Feature","id":"05205","properties":{"nombre":"Sanchorreja","ine":"05205"},"geometry":{"type":"Polygon","coordinates":[[[-4.9318,40.6629],[-4.9251,40.6742],[-4.8914,40.6855],[-4.8801,40.7114],[-4.8419,40.7114],[-4.8329,40.7001],[-4.8329,40.6904],[-4.8396,40.6726],[-4.8689,40.6613],[-4.9139,40.6451],[-4.9408,40.65],[-4.9318,40.6629]]]}},{"type":"Feature","id":"05206","properties":{"nombre":"San Esteban de los Patos","ine":"05206"},"geometry":{"type":"Polygon","coordinates":[[[-4.653,40.7356],[-4.6327,40.7615],[-4.6057,40.7469],[-4.635,40.7178],[-4.653,40.7356]]]}},{"type":"Feature","id":"05209","properties":{"nombre":"San García de Ingelmos","ine":"05209"},"geometry":{"type":"Polygon","coordinates":[[[-5.1703,40.7356],[-5.1793,40.7469],[-5.1568,40.7679],[-5.1388,40.7712],[-5.132,40.7857],[-5.1163,40.7905],[-5.0735,40.7889],[-5.06,40.7792],[-5.0443,40.7712],[-5.0466,40.7566],[-5.0803,40.7582],[-5.0848,40.7647],[-5.1253,40.7518],[-5.1275,40.7388],[-5.1455,40.7308],[-5.1703,40.7356]]]}},{"type":"Feature","id":"05207","properties":{"nombre":"San Esteban del Valle","ine":"05207"},"geometry":{"type":"Polygon","coordinates":[[[-5.0016,40.2687],[-4.9836,40.2865],[-4.9611,40.2994],[-4.9498,40.3543],[-4.9431,40.3543],[-4.9229,40.3301],[-4.9206,40.3026],[-4.9498,40.2768],[-4.9543,40.259],[-4.9723,40.2412],[-4.9633,40.2235],[-4.9746,40.2235],[-4.9948,40.2202],[-4.9836,40.2477],[-4.9971,40.2622],[-5.0016,40.2687]]]}},{"type":"Feature","id":"05208","properties":{"nombre":"San Esteban de Zapardiel","ine":"05208"},"geometry":{"type":"Polygon","coordinates":[[[-4.9296,41.1024],[-4.9116,41.1201],[-4.9094,41.1185],[-4.8644,41.0943],[-4.8734,41.0765],[-4.9296,41.1024]]]}},{"type":"Feature","id":"05210","properties":{"nombre":"San Juan de la Encinilla","ine":"05210"},"geometry":{"type":"Polygon","coordinates":[[[-4.8644,40.8212],[-4.8509,40.8422],[-4.8239,40.8471],[-4.8261,40.8293],[-4.8014,40.8051],[-4.8014,40.7938],[-4.8104,40.7873],[-4.8306,40.8115],[-4.8419,40.8035],[-4.8644,40.8212]]]}},{"type":"Feature","id":"05211","properties":{"nombre":"San Juan de la Nava","ine":"05211"},"geometry":{"type":"Polygon","coordinates":[[[-4.7204,40.4997],[-4.7182,40.5175],[-4.7227,40.5401],[-4.7047,40.5256],[-4.6844,40.5337],[-4.671,40.4981],[-4.6552,40.4803],[-4.6215,40.4206],[-4.626,40.4012],[-4.644,40.3963],[-4.644,40.4141],[-4.662,40.4254],[-4.7047,40.4383],[-4.7047,40.469],[-4.7204,40.4997]]]}},{"type":"Feature","id":"05212","properties":{"nombre":"San Juan del Molinillo","ine":"05212"},"geometry":{"type":"Polygon","coordinates":[[[-4.9049,40.4561],[-4.8914,40.4739],[-4.8981,40.482],[-4.8621,40.4933],[-4.8351,40.49],[-4.8014,40.4755],[-4.7834,40.4803],[-4.7902,40.4416],[-4.7834,40.4319],[-4.7902,40.4335],[-4.8036,40.4513],[-4.8329,40.4561],[-4.8801,40.448],[-4.9049,40.4561]]]}},{"type":"Feature","id":"05213","properties":{"nombre":"San Juan del Olmo","ine":"05213"},"geometry":{"type":"Polygon","coordinates":[[[-5.123,40.6548],[-5.1095,40.6548],[-5.0938,40.6419],[-5.0533,40.6645],[-5.0376,40.6661],[-5.0263,40.6451],[-5.0106,40.6419],[-5.0218,40.6274],[-5.069,40.6128],[-5.096,40.629],[-5.1118,40.6306],[-5.123,40.6548]]]}},{"type":"Feature","id":"05214","properties":{"nombre":"San Lorenzo de Tormes","ine":"05214"},"geometry":{"type":"Polygon","coordinates":[[[-5.5189,40.3721],[-5.5256,40.3883],[-5.5144,40.4012],[-5.4964,40.385],[-5.4851,40.3963],[-5.4671,40.3543],[-5.4874,40.3511],[-5.5189,40.3721]]]}},{"type":"Feature","id":"05216","properties":{"nombre":"San Martín del Pimpollar","ine":"05216"},"geometry":{"type":"Polygon","coordinates":[[[-5.0803,40.3705],[-5.0331,40.3883],[-5.0645,40.4109],[-5.0511,40.4254],[-5.0331,40.4222],[-5.0151,40.3705],[-5.0151,40.322],[-5.0578,40.3091],[-5.0623,40.3123],[-5.0668,40.3382],[-5.0803,40.3705]]]}},{"type":"Feature","id":"05217","properties":{"nombre":"San Miguel de Corneja","ine":"05217"},"geometry":{"type":"Polygon","coordinates":[[[-5.3007,40.4965],[-5.2872,40.4981],[-5.2535,40.5013],[-5.2512,40.4933],[-5.2917,40.4787],[-5.3007,40.4965]]]}},{"type":"Feature","id":"05218","properties":{"nombre":"San Miguel de Serrezuela","ine":"05218"},"geometry":{"type":"Polygon","coordinates":[[[-5.3075,40.7065],[-5.2535,40.734],[-5.231,40.6758],[-5.2422,40.6694],[-5.258,40.6694],[-5.2962,40.6548],[-5.3075,40.6888],[-5.3075,40.7065]]]}},{"type":"Feature","id":"05219","properties":{"nombre":"San Pascual","ine":"05219"},"geometry":{"type":"Polygon","coordinates":[[[-4.7879,40.8826],[-4.7812,40.9053],[-4.7542,40.8988],[-4.7272,40.9036],[-4.6687,40.9263],[-4.6665,40.9133],[-4.6889,40.9133],[-4.6979,40.9004],[-4.7407,40.8859],[-4.7384,40.8762],[-4.7632,40.8681],[-4.7812,40.8697],[-4.7879,40.8826]]]}},{"type":"Feature","id":"05220","properties":{"nombre":"San Pedro del Arroyo","ine":"05220"},"geometry":{"type":"Polygon","coordinates":[[[-4.9004,40.7647],[-4.8824,40.8002],[-4.9004,40.8083],[-4.8981,40.8099],[-4.8644,40.8212],[-4.8419,40.8035],[-4.8531,40.7647],[-4.8711,40.776],[-4.9004,40.7647]]]}},{"type":"Feature","id":"05221","properties":{"nombre":"Santa Cruz del Valle","ine":"05221"},"geometry":{"type":"Polygon","coordinates":[[[-4.9971,40.2622],[-4.9836,40.2477],[-4.9948,40.2202],[-4.9746,40.2235],[-4.9746,40.2073],[-4.9678,40.1782],[-4.9746,40.1556],[-4.9881,40.1621],[-4.9881,40.1895],[-5.0173,40.196],[-5.0331,40.2186],[-5.0038,40.2622],[-4.9971,40.2622]]]}},{"type":"Feature","id":"05224","properties":{"nombre":"Santa María del Arroyo","ine":"05224"},"geometry":{"type":"Polygon","coordinates":[[[-4.9453,40.5837],[-4.9633,40.5983],[-4.9611,40.6144],[-4.9251,40.6128],[-4.9094,40.6015],[-4.9386,40.5773],[-4.9453,40.5837]]]}},{"type":"Feature","id":"05225","properties":{"nombre":"Santa María del Berrocal","ine":"05225"},"geometry":{"type":"Polygon","coordinates":[[[-5.4626,40.4917],[-5.4514,40.4949],[-5.4469,40.5207],[-5.4334,40.5337],[-5.4019,40.5224],[-5.3704,40.5304],[-5.3817,40.5062],[-5.3974,40.4868],[-5.4154,40.4787],[-5.4132,40.4884],[-5.4626,40.4852],[-5.4626,40.4917]]]}},{"type":"Feature","id":"05226","properties":{"nombre":"Santa María de los Caballeros","ine":"05226"},"geometry":{"type":"Polygon","coordinates":[[[-5.4851,40.3963],[-5.4716,40.4093],[-5.4604,40.406],[-5.4312,40.4189],[-5.4244,40.3996],[-5.4312,40.3834],[-5.4559,40.3672],[-5.4469,40.3559],[-5.4491,40.3495],[-5.4671,40.3543],[-5.4851,40.3963]]]}},{"type":"Feature","id":"05227","properties":{"nombre":"Santa María del Tiétar","ine":"05227"},"geometry":{"type":"Polygon","coordinates":[[[-4.563,40.3123],[-4.5675,40.3236],[-4.545,40.3301],[-4.5293,40.2929],[-4.5562,40.2768],[-4.563,40.3123]]]}},{"type":"Feature","id":"05228","properties":{"nombre":"Santiago del Collado","ine":"05228"},"geometry":{"type":"Polygon","coordinates":[[[-5.3929,40.448],[-5.3547,40.4593],[-5.3232,40.448],[-5.2872,40.4448],[-5.2782,40.4351],[-5.2985,40.4141],[-5.3187,40.4044],[-5.3592,40.3963],[-5.3817,40.4012],[-5.3772,40.4141],[-5.3929,40.448]]]}},{"type":"Feature","id":"05231","properties":{"nombre":"San Vicente de Arévalo","ine":"05231"},"geometry":{"type":"Polygon","coordinates":[[[-4.8351,40.9844],[-4.8284,40.986],[-4.8036,40.9877],[-4.7744,40.9553],[-4.7429,40.9553],[-4.7542,40.9489],[-4.7789,40.9537],[-4.8126,40.9424],[-4.8306,40.9537],[-4.8351,40.9844]]]}},{"type":"Feature","id":"05229","properties":{"nombre":"Santo Domingo de las Posadas","ine":"05229"},"geometry":{"type":"Polygon","coordinates":[[[-4.6597,40.7744],[-4.6395,40.8051],[-4.6575,40.8196],[-4.6237,40.8229],[-4.6192,40.8212],[-4.6125,40.8067],[-4.6305,40.8002],[-4.6215,40.7841],[-4.6395,40.7695],[-4.6597,40.7744]]]}},{"type":"Feature","id":"05230","properties":{"nombre":"Santo Tomé de Zabarcos","ine":"05230"},"geometry":{"type":"Polygon","coordinates":[[[-4.9229,40.7809],[-4.9071,40.8099],[-4.9004,40.8083],[-4.8824,40.8002],[-4.9004,40.7647],[-4.9004,40.7631],[-4.9094,40.7841],[-4.9229,40.7809]]]}},{"type":"Feature","id":"05233","properties":{"nombre":"Serranillos","ine":"05233"},"geometry":{"type":"Polygon","coordinates":[[[-4.9431,40.3543],[-4.9251,40.3543],[-4.8576,40.3236],[-4.8801,40.3139],[-4.9094,40.301],[-4.9206,40.3026],[-4.9229,40.3301],[-4.9431,40.3543]]]}},{"type":"Feature","id":"05234","properties":{"nombre":"Sigeres","ine":"05234"},"geometry":{"type":"Polygon","coordinates":[[[-4.9768,40.7776],[-4.9723,40.7889],[-4.9386,40.8099],[-4.9071,40.8099],[-4.9229,40.7809],[-4.9453,40.7825],[-4.9678,40.776],[-4.9768,40.7776]],[[-4.9543,40.7938],[-4.9543,40.7938],[-4.9543,40.7938],[-4.9543,40.7938]]]}},{"type":"Feature","id":"05235","properties":{"nombre":"Sinlabajos","ine":"05235"},"geometry":{"type":"Polygon","coordinates":[[[-4.8756,41.062],[-4.8734,41.0765],[-4.8644,41.0943],[-4.8554,41.1007],[-4.8284,41.0991],[-4.8036,41.0652],[-4.8396,41.0555],[-4.8756,41.062]]]}},{"type":"Feature","id":"05236","properties":{"nombre":"Solana de Ávila","ine":"05236"},"geometry":{"type":"Polygon","coordinates":[[[-5.737,40.2945],[-5.7145,40.3252],[-5.6898,40.3382],[-5.6853,40.343],[-5.6741,40.3479],[-5.6088,40.3689],[-5.5818,40.3802],[-5.5728,40.3382],[-5.5998,40.3123],[-5.6043,40.3107],[-5.6381,40.3123],[-5.6921,40.2913],[-5.737,40.2945]]]}},{"type":"Feature","id":"05237","properties":{"nombre":"Solana de Rioalmar","ine":"05237"},"geometry":{"type":"Polygon","coordinates":[[[-5.0466,40.7566],[-5.0443,40.7712],[-5.0106,40.7809],[-4.9993,40.7744],[-4.9993,40.7663],[-4.9633,40.7453],[-4.9678,40.7275],[-5.0083,40.7065],[-5.0241,40.713],[-5.0443,40.7372],[-5.0466,40.7566]]]}},{"type":"Feature","id":"05238","properties":{"nombre":"Solosancho","ine":"05238"},"geometry":{"type":"Polygon","coordinates":[[[-4.9521,40.5401],[-4.9408,40.5547],[-4.9566,40.5741],[-4.9453,40.5837],[-4.9386,40.5773],[-4.8914,40.5773],[-4.8824,40.5902],[-4.8711,40.5886],[-4.8824,40.5627],[-4.8689,40.5466],[-4.8711,40.524],[-4.9049,40.5078],[-4.9071,40.4997],[-4.9453,40.4981],[-4.9566,40.5256],[-4.9521,40.5401]]]}},{"type":"Feature","id":"05239","properties":{"nombre":"Sotalbo","ine":"05239"},"geometry":{"type":"MultiPolygon","coordinates":[[[[-5.0106,40.4755],[-4.9926,40.5062],[-4.9791,40.4965],[-4.9453,40.4981],[-4.9071,40.4997],[-4.9049,40.5078],[-4.8711,40.524],[-4.8689,40.5466],[-4.8824,40.5627],[-4.8711,40.5886],[-4.8666,40.587],[-4.8374,40.5692],[-4.8351,40.5434],[-4.8441,40.5304],[-4.8306,40.524],[-4.8149,40.5127],[-4.7654,40.5046],[-4.7294,40.5078],[-4.7182,40.5175],[-4.7204,40.4997],[-4.7744,40.4884],[-4.7834,40.4803],[-4.8014,40.4755],[-4.8351,40.49],[-4.8621,40.4933],[-4.8981,40.482],[-4.8914,40.4739],[-4.9049,40.4561],[-4.8981,40.482],[-4.9588,40.4755],[-4.9836,40.482],[-5.0241,40.4529],[-5.0106,40.4755]]],[[[-4.8149,40.5983],[-4.7992,40.5902],[-4.8126,40.5821],[-4.8284,40.5821],[-4.8149,40.5983]]]]}},{"type":"Feature","id":"05240","properties":{"nombre":"Sotillo de la Adrada","ine":"05240"},"geometry":{"type":"Polygon","coordinates":[[[-4.6395,40.2687],[-4.6102,40.301],[-4.6327,40.3285],[-4.6102,40.3543],[-4.5945,40.3462],[-4.6035,40.3349],[-4.5967,40.3204],[-4.563,40.3123],[-4.5562,40.2768],[-4.5562,40.2655],[-4.5697,40.2574],[-4.5945,40.2509],[-4.6395,40.2687]]]}},{"type":"Feature","id":"05241","properties":{"nombre":"El Tiemblo","ine":"05241"},"geometry":{"type":"Polygon","coordinates":[[[-4.5495,40.3446],[-4.5383,40.3931],[-4.554,40.4189],[-4.5428,40.4383],[-4.527,40.4383],[-4.464,40.4222],[-4.4663,40.4076],[-4.4415,40.4141],[-4.4213,40.406],[-4.4415,40.3883],[-4.4393,40.3511],[-4.4618,40.3398],[-4.473,40.3479],[-4.473,40.3689],[-4.4865,40.3705],[-4.527,40.3446],[-4.5472,40.3414],[-4.5495,40.3446]]]}},{"type":"Feature","id":"05242","properties":{"nombre":"Tiñosillos","ine":"05242"},"geometry":{"type":"Polygon","coordinates":[[[-4.7542,40.936],[-4.7542,40.9489],[-4.7429,40.9553],[-4.7182,40.9796],[-4.6934,40.9844],[-4.6912,40.9731],[-4.6889,40.9505],[-4.6754,40.9343],[-4.6687,40.9263],[-4.7384,40.9279],[-4.7542,40.936]]]}},{"type":"Feature","id":"05252","properties":{"nombre":"Valdecasa","ine":"05252"},"geometry":{"type":"Polygon","coordinates":[[[-5.0511,40.6952],[-5.0263,40.6871],[-5.0151,40.6775],[-5.0016,40.6936],[-4.9926,40.6888],[-4.9791,40.6548],[-5.0106,40.6419],[-5.0263,40.6451],[-5.0376,40.6661],[-5.06,40.6855],[-5.0511,40.6952]],[[-5.0151,40.671],[-5.0151,40.671],[-5.0151,40.671],[-5.0151,40.671]]]}},{"type":"Feature","id":"05243","properties":{"nombre":"Tolbaños","ine":"05243"},"geometry":{"type":"Polygon","coordinates":[[[-4.6395,40.7695],[-4.6215,40.7841],[-4.5945,40.7744],[-4.5697,40.7776],[-4.554,40.8035],[-4.5293,40.7873],[-4.5248,40.7744],[-4.5495,40.7631],[-4.554,40.7388],[-4.5765,40.7388],[-4.5742,40.7114],[-4.617,40.7081],[-4.635,40.7178],[-4.6057,40.7469],[-4.6327,40.7615],[-4.6395,40.7695]]]}},{"type":"Feature","id":"05244","properties":{"nombre":"Tormellas","ine":"05244"},"geometry":{"type":"Polygon","coordinates":[[[-5.5256,40.3075],[-5.5144,40.3301],[-5.5009,40.3252],[-5.5031,40.3172],[-5.4761,40.2978],[-5.5166,40.2913],[-5.5256,40.3075]]]}},{"type":"Feature","id":"05245","properties":{"nombre":"Tornadizos de Ávila","ine":"05245"},"geometry":{"type":"Polygon","coordinates":[[[-4.6934,40.5627],[-4.6889,40.5999],[-4.6575,40.5967],[-4.6462,40.6193],[-4.6192,40.6468],[-4.5877,40.6403],[-4.5945,40.6516],[-4.5652,40.6661],[-4.5517,40.6516],[-4.5338,40.65],[-4.509,40.6338],[-4.5135,40.6225],[-4.5248,40.6112],[-4.5697,40.6096],[-4.581,40.5934],[-4.6012,40.5821],[-4.6012,40.5676],[-4.635,40.5498],[-4.6799,40.5401],[-4.6934,40.5627]]]}},{"type":"Feature","id":"05246","properties":{"nombre":"Tórtoles","ine":"05246"},"geometry":{"type":"MultiPolygon","coordinates":[[[[-5.2827,40.5918],[-5.2737,40.5951],[-5.2535,40.5821],[-5.2467,40.5498],[-5.2692,40.5417],[-5.2917,40.5514],[-5.2985,40.545],[-5.3007,40.566],[-5.2827,40.5918]]],[[[-5.2737,40.6144],[-5.2715,40.6241],[-5.258,40.6096],[-5.2715,40.5951],[-5.276,40.6031],[-5.2737,40.6144]]]]}},{"type":"Feature","id":"05253","properties":{"nombre":"Vega de Santa María","ine":"05253"},"geometry":{"type":"Polygon","coordinates":[[[-4.6912,40.8358],[-4.6754,40.8455],[-4.6867,40.8584],[-4.6305,40.8568],[-4.6305,40.8261],[-4.6237,40.8229],[-4.6575,40.8196],[-4.6754,40.8212],[-4.6912,40.8358]]]}},{"type":"Feature","id":"05254","properties":{"nombre":"Velayos","ine":"05254"},"geometry":{"type":"Polygon","coordinates":[[[-4.6305,40.8568],[-4.6192,40.8568],[-4.608,40.8762],[-4.5877,40.8713],[-4.572,40.8568],[-4.5855,40.8293],[-4.6192,40.8212],[-4.6237,40.8229],[-4.6305,40.8261],[-4.6305,40.8568]]]}},{"type":"Feature","id":"05264","properties":{"nombre":"Viñegra de Moraña","ine":"05264"},"geometry":{"type":"Polygon","coordinates":[[[-4.9453,40.8632],[-4.9139,40.8665],[-4.9026,40.8536],[-4.9139,40.8342],[-4.9363,40.8342],[-4.9453,40.8632]]]}},{"type":"Feature","id":"05256","properties":{"nombre":"Villaflor","ine":"05256"},"geometry":{"type":"Polygon","coordinates":[[[-4.9094,40.7275],[-4.9139,40.7388],[-4.9004,40.7631],[-4.9004,40.7647],[-4.8711,40.776],[-4.8531,40.7647],[-4.8509,40.7631],[-4.8599,40.7421],[-4.8936,40.7275],[-4.9094,40.7275]]]}},{"type":"Feature","id":"05257","properties":{"nombre":"Villafranca de la Sierra","ine":"05257"},"geometry":{"type":"MultiPolygon","coordinates":[[[[-5.1343,40.4755],[-5.1478,40.4577],[-5.1725,40.4561],[-5.1343,40.4755]]],[[[-5.2355,40.503],[-5.2085,40.5159],[-5.168,40.5078],[-5.186,40.5046],[-5.1927,40.4868],[-5.2085,40.4803],[-5.186,40.4593],[-5.2085,40.4545],[-5.231,40.4739],[-5.24,40.4949],[-5.2512,40.4933],[-5.2535,40.5013],[-5.2355,40.503]]],[[[-5.1208,40.5062],[-5.1073,40.5094],[-5.078,40.4997],[-5.0735,40.4771],[-5.0938,40.4707],[-5.1343,40.4755],[-5.1208,40.5062]]]]}},{"type":"Feature","id":"05258","properties":{"nombre":"Villanueva de Gómez","ine":"05258"},"geometry":{"type":"Polygon","coordinates":[[[-4.7384,40.8762],[-4.7407,40.8859],[-4.6979,40.9004],[-4.6889,40.9133],[-4.6665,40.9133],[-4.6687,40.8907],[-4.6867,40.8584],[-4.7204,40.8762],[-4.7384,40.8762]]]}},{"type":"Feature","id":"05259","properties":{"nombre":"Villanueva del Aceral","ine":"05259"},"geometry":{"type":"Polygon","coordinates":[[[-4.9049,41.0474],[-4.8869,41.0555],[-4.8756,41.062],[-4.8396,41.0555],[-4.8396,41.0297],[-4.8734,41.0183],[-4.9049,41.0474]]]}},{"type":"Feature","id":"05260","properties":{"nombre":"Villanueva del Campillo","ine":"05260"},"geometry":{"type":"Polygon","coordinates":[[[-5.2332,40.6193],[-5.2175,40.6128],[-5.1882,40.6241],[-5.132,40.5724],[-5.1658,40.5482],[-5.186,40.5514],[-5.2175,40.5595],[-5.2467,40.5821],[-5.2332,40.5967],[-5.2332,40.6193]]]}},{"type":"Feature","id":"05261","properties":{"nombre":"Villar de Corneja","ine":"05261"},"geometry":{"type":"Polygon","coordinates":[[[-5.4649,40.4658],[-5.4626,40.4852],[-5.4132,40.4884],[-5.4154,40.4787],[-5.4334,40.469],[-5.4649,40.4658]]]}},{"type":"Feature","id":"05262","properties":{"nombre":"Villarejo del Valle","ine":"05262"},"geometry":{"type":"Polygon","coordinates":[[[-5.0151,40.3705],[-4.9971,40.3721],[-4.9521,40.3543],[-4.9498,40.3543],[-4.9611,40.2994],[-4.9836,40.2865],[-5.0016,40.2687],[-5.0061,40.2687],[-5.0016,40.2945],[-5.0151,40.322],[-5.0151,40.3705]]]}},{"type":"Feature","id":"05263","properties":{"nombre":"Villatoro","ine":"05263"},"geometry":{"type":"Polygon","coordinates":[[[-5.1658,40.5482],[-5.132,40.5724],[-5.1095,40.5854],[-5.0803,40.5579],[-5.1028,40.5288],[-5.0623,40.5207],[-5.0196,40.5175],[-5.0376,40.4868],[-5.0735,40.4771],[-5.078,40.4997],[-5.1073,40.5094],[-5.1163,40.5207],[-5.1635,40.5191],[-5.1658,40.5482]]]}},{"type":"Feature","id":"05266","properties":{"nombre":"Zapardiel de la Cañada","ine":"05266"},"geometry":{"type":"Polygon","coordinates":[[[-5.3704,40.6064],[-5.3502,40.6209],[-5.3299,40.6161],[-5.3187,40.6354],[-5.2985,40.6435],[-5.2782,40.6387],[-5.2737,40.6144],[-5.276,40.6031],[-5.2872,40.5951],[-5.3007,40.5708],[-5.3389,40.5724],[-5.3704,40.6064]]]}},{"type":"Feature","id":"05267","properties":{"nombre":"Zapardiel de la Ribera","ine":"05267"},"geometry":{"type":"Polygon","coordinates":[[[-5.3254,40.364],[-5.3119,40.3624],[-5.3164,40.3446],[-5.2917,40.3188],[-5.2782,40.2477],[-5.2737,40.2477],[-5.2827,40.2412],[-5.3164,40.2638],[-5.3232,40.2865],[-5.3254,40.3091],[-5.3569,40.3252],[-5.3704,40.3382],[-5.3524,40.343],[-5.3457,40.3608],[-5.3254,40.364]]]}},{"type":"Feature","id":"05905","properties":{"nombre":"Villanueva de Ávila","ine":"05905"},"geometry":{"type":"Polygon","coordinates":[[[-4.8644,40.3915],[-4.8554,40.3963],[-4.8396,40.3915],[-4.8126,40.3996],[-4.7992,40.3786],[-4.7992,40.3479],[-4.8126,40.3317],[-4.8351,40.3495],[-4.8374,40.3672],[-4.8644,40.3915]]]}},{"type":"Feature","id":"05901","properties":{"nombre":"San Juan de Gredos","ine":"05901"},"geometry":{"type":"Polygon","coordinates":[[[-5.2985,40.4141],[-5.2782,40.4351],[-5.231,40.44],[-5.2242,40.4093],[-5.213,40.4076],[-5.2152,40.3559],[-5.204,40.3446],[-5.204,40.3059],[-5.1927,40.2671],[-5.24,40.2477],[-5.2625,40.2509],[-5.2377,40.2752],[-5.2377,40.3236],[-5.267,40.3543],[-5.2895,40.3608],[-5.2985,40.385],[-5.2895,40.3979],[-5.2985,40.4141]]]}},{"type":"Feature","id":"05902","properties":{"nombre":"Santa María del Cubillo","ine":"05902"},"geometry":{"type":"Polygon","coordinates":[[[-4.5293,40.7873],[-4.482,40.7922],[-4.455,40.755],[-4.4325,40.7421],[-4.4348,40.7162],[-4.419,40.6548],[-4.419,40.6338],[-4.4663,40.6354],[-4.4528,40.6678],[-4.4708,40.692],[-4.4595,40.7178],[-4.482,40.7227],[-4.5,40.7405],[-4.4978,40.7502],[-4.5248,40.7744],[-4.5293,40.7873]]]}},{"type":"Feature","id":"05903","properties":{"nombre":"Diego del Carpio","ine":"05903"},"geometry":{"type":"Polygon","coordinates":[[[-5.3682,40.6807],[-5.3412,40.6871],[-5.3277,40.7049],[-5.3075,40.7065],[-5.3075,40.6888],[-5.2962,40.6548],[-5.2985,40.6435],[-5.3187,40.6354],[-5.3479,40.6484],[-5.3659,40.6484],[-5.3862,40.6694],[-5.3682,40.6807]]]}},{"type":"Feature","id":"05904","properties":{"nombre":"Santiago del Tormes","ine":"05904"},"geometry":{"type":"Polygon","coordinates":[[[-5.4491,40.3495],[-5.4469,40.3559],[-5.3974,40.3737],[-5.3614,40.3834],[-5.3592,40.3963],[-5.3187,40.4044],[-5.3254,40.364],[-5.3457,40.3608],[-5.3524,40.343],[-5.3704,40.3382],[-5.3569,40.3252],[-5.3254,40.3091],[-5.3232,40.2865],[-5.3659,40.2962],[-5.3749,40.3059],[-5.4087,40.3236],[-5.4312,40.3252],[-5.4267,40.3366],[-5.4491,40.3495]]]}}]}