{"type":"FeatureCollection","features":[{"type":"Feature","properties":{"nombre":"Mesegar de Corneja","ine":"05126","aprox":true},"geometry":{"type":"Point","coordinates":[-5.3099,40.5119]}},{"type":"Feature","properties":{"nombre":"Mijares","ine":"05127","aprox":true},"geometry":{"type":"Point","coordinates":[-4.8315,40.2854]}},{"type":"Feature","properties":{"nombre":"Muñomer del Peco","ine":"05140","aprox":true},"geometry":{"type":"Point","coordinates":[-4.8916,40.8662]}},{"type":"Feature","properties":{"nombre":"Vita","ine":"05265","aprox":true},"geometry":{"type":"Point","coordinates":[-5.001,40.8213]}},{"type":"Feature","properties":{"nombre":"Muñopepe","ine":"05141","aprox":true},"geometry":{"type":"Point","coordinates":[-4.8185,40.6384]}},{"type":"Feature","properties":{"nombre":"Adanero","ine":"05001","aprox":true},"geometry":{"type":"Point","coordinates":[-4.5993,40.943]}},{"type":"Feature","properties":{"nombre":"Albornos","ine":"05005","aprox":true},"geometry":{"type":"Point","coordinates":[-4.884,40.8344]}},{"type":"Feature","properties":{"nombre":"Aldeanueva de Santa Cruz","ine":"05007","aprox":true},"geometry":{"type":"Point","coordinates":[-5.4274,40.3743]}},{"type":"Feature","properties":{"nombre":"Aldeaseca","ine":"05008","aprox":true},"geometry":{"type":"Point","coordinates":[-4.8039,41.0423]}},{"type":"Feature","properties":{"nombre":"La Aldehuela","ine":"05010","aprox":true},"geometry":{"type":"Point","coordinates":[-5.403,40.4151]}},{"type":"Feature","properties":{"nombre":"Amavida","ine":"05012","aprox":true},"geometry":{"type":"Point","coordinates":[-5.0644,40.5792]}},{"type":"Feature","properties":{"nombre":"El Arenal","ine":"05013","aprox":true},"geometry":{"type":"Point","coordinates":[-5.0824,40.2754]}},{"type":"Feature","properties":{"nombre":"Arenas de San Pedro","ine":"05014","aprox":true},"geometry":{"type":"Point","coordinates":[-5.1124,40.173]}},{"type":"Feature","properties":{"nombre":"Arevalillo","ine":"05015","aprox":true},"geometry":{"type":"Point","coordinates":[-5.3723,40.5887]}},{"type":"Feature","properties":{"nombre":"El Barco de Ávila","ine":"05021","aprox":true},"geometry":{"type":"Point","coordinates":[-5.5197,40.3556]}},{"type":"Feature","properties":{"nombre":"Becedillas","ine":"05025","aprox":true},"geometry":{"type":"Point","coordinates":[-5.3194,40.5495]}},{"type":"Feature","properties":{"nombre":"Bercial de Zapardiel","ine":"05026","aprox":true},"geometry":{"type":"Point","coordinates":[-4.975,41.0425]}},{"type":"Feature","properties":{"nombre":"Muñosancho","ine":"05142","aprox":true},"geometry":{"type":"Point","coordinates":[-5.0311,40.924]}},{"type":"Feature","properties":{"nombre":"Pascualcobo","ine":"05181","aprox":true},"geometry":{"type":"Point","coordinates":[-5.2665,40.6448]}},{"type":"Feature","properties":{"nombre":"Salobral","ine":"05197","aprox":true},"geometry":{"type":"Point","coordinates":[-4.8055,40.6093]}},{"type":"Feature","properties":{"nombre":"Salvadiós","ine":"05198","aprox":true},"geometry":{"type":"Point","coordinates":[-5.0793,40.8882]}},{"type":"Feature","properties":{"nombre":"San Martín de la Vega del Alberche","ine":"05215","aprox":true},"geometry":{"type":"Point","coordinates":[-5.178,40.4268]}},{"type":"Feature","properties":{"nombre":"Collado de Contreras","ine":"05062","aprox":true},"geometry":{"type":"Point","coordinates":[-4.9294,40.8843]}},{"type":"Feature","properties":{"nombre":"Collado del Mirón","ine":"05063","aprox":true},"geometry":{"type":"Point","coordinates":[-5.3616,40.5511]}},{"type":"Feature","properties":{"nombre":"Blascosancho","ine":"05035","aprox":true},"geometry":{"type":"Point","coordinates":[-4.6437,40.8754]}},{"type":"Feature","properties":{"nombre":"Constanzana","ine":"05064","aprox":true},"geometry":{"type":"Point","coordinates":[-4.8812,40.9248]}},{"type":"Feature","properties":{"nombre":"Donjimeno","ine":"05069","aprox":true},"geometry":{"type":"Point","coordinates":[-4.8563,40.9637]}},{"type":"Feature","properties":{"nombre":"Donvidas","ine":"05070","aprox":true},"geometry":{"type":"Point","coordinates":[-4.8026,41.0852]}},{"type":"Feature","properties":{"nombre":"Espinosa de los Caballeros","ine":"05072","aprox":true},"geometry":{"type":"Point","coordinates":[-4.6687,41.0178]}},{"type":"Feature","properties":{"nombre":"Fuente el Saúz","ine":"05077","aprox":true},"geometry":{"type":"Point","coordinates":[-4.8984,40.9745]}},{"type":"Feature","properties":{"nombre":"Fuentes de Año","ine":"05078","aprox":true},"geometry":{"type":"Point","coordinates":[-4.9122,41.0237]}},{"type":"Feature","properties":{"nombre":"Berrocalejo de Aragona","ine":"05030","aprox":true},"geometry":{"type":"Point","coordinates":[-4.593,40.6977]}},{"type":"Feature","properties":{"nombre":"Gilbuena","ine":"05084","aprox":true},"geometry":{"type":"Point","coordinates":[-5.5932,40.4166]}},{"type":"Feature","properties":{"nombre":"Gil García","ine":"05085","aprox":true},"geometry":{"type":"Point","coordinates":[-5.5923,40.2813]}},{"type":"Feature","properties":{"nombre":"La Adrada","ine":"05002","aprox":true},"geometry":{"type":"Point","coordinates":[-4.6544,40.3081]}},{"type":"Feature","properties":{"nombre":"Arévalo","ine":"05016","aprox":true},"geometry":{"type":"Point","coordinates":[-4.7211,41.0449]}},{"type":"Feature","properties":{"nombre":"Aveinte","ine":"05017","aprox":true},"geometry":{"type":"Point","coordinates":[-4.8323,40.7854]}},{"type":"Feature","properties":{"nombre":"Avellaneda","ine":"05018","aprox":true},"geometry":{"type":"Point","coordinates":[-5.3851,40.388]}},{"type":"Feature","properties":{"nombre":"Ávila","ine":"05019","aprox":true},"geometry":{"type":"Point","coordinates":[-4.6455,40.6632]}},{"type":"Feature","properties":{"nombre":"El Barraco","ine":"05022","aprox":true},"geometry":{"type":"Point","coordinates":[-4.596,40.442]}},{"type":"Feature","properties":{"nombre":"Barromán","ine":"05023","aprox":true},"geometry":{"type":"Point","coordinates":[-4.9307,41.0576]}},{"type":"Feature","properties":{"nombre":"Becedas","ine":"05024","aprox":true},"geometry":{"type":"Point","coordinates":[-5.6312,40.387]}},{"type":"Feature","properties":{"nombre":"Las Berlanas","ine":"05027","aprox":true},"geometry":{"type":"Point","coordinates":[-4.7676,40.8016]}},{"type":"Feature","properties":{"nombre":"Bernuy-Zapardiel","ine":"05029","aprox":true},"geometry":{"type":"Point","coordinates":[-4.9388,40.9713]}},{"type":"Feature","properties":{"nombre":"Santa Cruz de Pinares","ine":"05222","aprox":true},"geometry":{"type":"Point","coordinates":[-4.5999,40.5305]}},{"type":"Feature","properties":{"nombre":"Blascomillán","ine":"05033","aprox":true},"geometry":{"type":"Point","coordinates":[-5.1156,40.8203]}},{"type":"Feature","properties":{"nombre":"Blasconuño de Matacabras","ine":"05034","aprox":true},"geometry":{"type":"Point","coordinates":[-4.9864,41.1434]}},{"type":"Feature","properties":{"nombre":"Guisando","ine":"05089","aprox":true},"geometry":{"type":"Point","coordinates":[-5.1449,40.2208]}},{"type":"Feature","properties":{"nombre":"El Bohodón","ine":"05036","aprox":true},"geometry":{"type":"Point","coordinates":[-4.7397,40.917]}},{"type":"Feature","properties":{"nombre":"Bonilla de la Sierra","ine":"05038","aprox":true},"geometry":{"type":"Point","coordinates":[-5.2509,40.5489]}},{"type":"Feature","properties":{"nombre":"Bohoyo","ine":"05037","aprox":true},"geometry":{"type":"Point","coordinates":[-5.4088,40.2893]}},{"type":"Feature","properties":{"nombre":"Canales","ine":"05046","aprox":true},"geometry":{"type":"Point","coordinates":[-4.9059,40.9958]}},{"type":"Feature","properties":{"nombre":"Candeleda","ine":"05047","aprox":true},"geometry":{"type":"Point","coordinates":[-5.2791,40.1763]}},{"type":"Feature","properties":{"nombre":"Brabos","ine":"05039","aprox":true},"geometry":{"type":"Point","coordinates":[-4.9272,40.7587]}},{"type":"Feature","properties":{"nombre":"Cantiveros","ine":"05048","aprox":true},"geometry":{"type":"Point","coordinates":[-4.9618,40.9555]}},{"type":"Feature","properties":{"nombre":"Gutierre-Muñoz","ine":"05090","aprox":true},"geometry":{"type":"Point","coordinates":[-4.652,40.9674]}},{"type":"Feature","properties":{"nombre":"Bularros","ine":"05040","aprox":true},"geometry":{"type":"Point","coordinates":[-4.8398,40.7365]}},{"type":"Feature","properties":{"nombre":"Hoyorredondo","ine":"05103","aprox":true},"geometry":{"type":"Point","coordinates":[-5.4089,40.4602]}},{"type":"Feature","properties":{"nombre":"Burgohondo","ine":"05041","aprox":true},"geometry":{"type":"Point","coordinates":[-4.7788,40.388]}},{"type":"Feature","properties":{"nombre":"Cabezas de Alambre","ine":"05042","aprox":true},"geometry":{"type":"Point","coordinates":[-4.835,40.9362]}},{"type":"Feature","properties":{"nombre":"Cabezas del Pozo","ine":"05043","aprox":true},"geometry":{"type":"Point","coordinates":[-4.9663,41.0023]}},{"type":"Feature","properties":{"nombre":"Cabezas del Villar","ine":"05044","aprox":true},"geometry":{"type":"Point","coordinates":[-5.2034,40.6944]}},{"type":"Feature","properties":{"nombre":"Cabizuela","ine":"05045","aprox":true},"geometry":{"type":"Point","coordinates":[-4.8078,40.903]}},{"type":"Feature","properties":{"nombre":"Cardeñosa","ine":"05049","aprox":true},"geometry":{"type":"Point","coordinates":[-4.7314,40.7368]}},{"type":"Feature","properties":{"nombre":"La Carrera","ine":"05051","aprox":true},"geometry":{"type":"Point","coordinates":[-5.559,40.3538]}},{"type":"Feature","properties":{"nombre":"Hoyos del Collado","ine":"05104","aprox":true},"geometry":{"type":"Point","coordinates":[-5.2035,40.3694]}},{"type":"Feature","properties":{"nombre":"Casas del Puerto","ine":"05052","aprox":true},"geometry":{"type":"Point","coordinates":[-5.1812,40.5251]}},{"type":"Feature","properties":{"nombre":"Casasola","ine":"05053","aprox":true},"geometry":{"type":"Point","coordinates":[-4.8214,40.6645]}},{"type":"Feature","properties":{"nombre":"Langa","ine":"05109","aprox":true},"geometry":{"type":"Point","coordinates":[-4.8548,41.0029]}},{"type":"Feature","properties":{"nombre":"Casavieja","ine":"05054","aprox":true},"geometry":{"type":"Point","coordinates":[-4.7738,40.3003]}},{"type":"Feature","properties":{"nombre":"Casillas","ine":"05055","aprox":true},"geometry":{"type":"Point","coordinates":[-4.5754,40.3323]}},{"type":"Feature","properties":{"nombre":"Castellanos de Zapardiel","ine":"05056","aprox":true},"geometry":{"type":"Point","coordinates":[-4.9072,41.0802]}},{"type":"Feature","properties":{"nombre":"Cebreros","ine":"05057","aprox":true},"geometry":{"type":"Point","coordinates":[-4.4331,40.4539]}},{"type":"Feature","properties":{"nombre":"Malpartida de Corneja","ine":"05116","aprox":true},"geometry":{"type":"Point","coordinates":[-5.352,40.5181]}},{"type":"Feature","properties":{"nombre":"Cepeda la Mora","ine":"05058","aprox":true},"geometry":{"type":"Point","coordinates":[-5.0513,40.4566]}},{"type":"Feature","properties":{"nombre":"La Colilla","ine":"05061","aprox":true},"geometry":{"type":"Point","coordinates":[-4.7588,40.645]}},{"type":"Feature","properties":{"nombre":"Cillán","ine":"05059","aprox":true},"geometry":{"type":"Point","coordinates":[-4.9877,40.6985]}},{"type":"Feature","properties":{"nombre":"Cisla","ine":"05060","aprox":true},"geometry":{"type":"Point","coordinates":[-5.018,40.9692]}},{"type":"Feature","properties":{"nombre":"Mamblas","ine":"05117","aprox":true},"geometry":{"type":"Point","coordinates":[-5.0234,41.0091]}},{"type":"Feature","properties":{"nombre":"Crespos","ine":"05065","aprox":true},"geometry":{"type":"Point","coordinates":[-4.9721,40.8602]}},{"type":"Feature","properties":{"nombre":"Cuevas del Valle","ine":"05066","aprox":true},"geometry":{"type":"Point","coordinates":[-5.0298,40.2956]}},{"type":"Feature","properties":{"nombre":"Chamartín","ine":"05067","aprox":true},"geometry":{"type":"Point","coordinates":[-4.9506,40.7194]}},{"type":"Feature","properties":{"nombre":"Flores de Ávila","ine":"05073","aprox":true},"geometry":{"type":"Point","coordinates":[-5.0835,40.9424]}},{"type":"Feature","properties":{"nombre":"Fontiveros","ine":"05074","aprox":true},"geometry":{"type":"Point","coordinates":[-4.9585,40.9242]}},{"type":"Feature","properties":{"nombre":"Mancera de Arriba","ine":"05118","aprox":true},"geometry":{"type":"Point","coordinates":[-5.1506,40.7941]}},{"type":"Feature","properties":{"nombre":"Fresnedilla","ine":"05075","aprox":true},"geometry":{"type":"Point","coordinates":[-4.6565,40.2365]}},{"type":"Feature","properties":{"nombre":"El Fresno","ine":"05076","aprox":true},"geometry":{"type":"Point","coordinates":[-4.7531,40.6194]}},{"type":"Feature","properties":{"nombre":"Gallegos de Altamiros","ine":"05079","aprox":true},"geometry":{"type":"Point","coordinates":[-4.911,40.7024]}},{"type":"Feature","properties":{"nombre":"Gallegos de Sobrinos","ine":"05080","aprox":true},"geometry":{"type":"Point","coordinates":[-5.1461,40.7046]}},{"type":"Feature","properties":{"nombre":"Garganta del Villar","ine":"05081","aprox":true},"geometry":{"type":"Point","coordinates":[-5.1176,40.4524]}},{"type":"Feature","properties":{"nombre":"Gavilanes","ine":"05082","aprox":true},"geometry":{"type":"Point","coordinates":[-4.8686,40.2713]}},{"type":"Feature","properties":{"nombre":"Gemuño","ine":"05083","aprox":true},"geometry":{"type":"Point","coordinates":[-4.7766,40.5868]}},{"type":"Feature","properties":{"nombre":"Gimialcón","ine":"05086","aprox":true},"geometry":{"type":"Point","coordinates":[-5.1285,40.8703]}},{"type":"Feature","properties":{"nombre":"Gotarrendura","ine":"05087","aprox":true},"geometry":{"type":"Point","coordinates":[-4.7288,40.8279]}},{"type":"Feature","properties":{"nombre":"Grandes y San Martín","ine":"05088","aprox":true},"geometry":{"type":"Point","coordinates":[-4.9681,40.7616]}},{"type":"Feature","properties":{"nombre":"Hernansancho","ine":"05092","aprox":true},"geometry":{"type":"Point","coordinates":[-4.7188,40.8558]}},{"type":"Feature","properties":{"nombre":"Herradón de Pinares","ine":"05093","aprox":true},"geometry":{"type":"Point","coordinates":[-4.5411,40.5863]}},{"type":"Feature","properties":{"nombre":"Herreros de Suso","ine":"05094","aprox":true},"geometry":{"type":"Point","coordinates":[-5.0429,40.8033]}},{"type":"Feature","properties":{"nombre":"Higuera de las Dueñas","ine":"05095","aprox":true},"geometry":{"type":"Point","coordinates":[-4.6085,40.2278]}},{"type":"Feature","properties":{"nombre":"La Hija de Dios","ine":"05096","aprox":true},"geometry":{"type":"Point","coordinates":[-4.9686,40.5165]}},{"type":"Feature","properties":{"nombre":"La Horcajada","ine":"05097","aprox":true},"geometry":{"type":"Point","coordinates":[-5.4714,40.433]}},{"type":"Feature","properties":{"nombre":"Horcajo de las Torres","ine":"05099","aprox":true},"geometry":{"type":"Point","coordinates":[-5.1093,41.0697]}},{"type":"Feature","properties":{"nombre":"El Hornillo","ine":"05100","aprox":true},"geometry":{"type":"Point","coordinates":[-5.1262,40.2615]}},{"type":"Feature","properties":{"nombre":"Hoyocasero","ine":"05101","aprox":true},"geometry":{"type":"Point","coordinates":[-4.987,40.4044]}},{"type":"Feature","properties":{"nombre":"El Hoyo de Pinares","ine":"05102","aprox":true},"geometry":{"type":"Point","coordinates":[-4.3966,40.5086]}},{"type":"Feature","properties":{"nombre":"Hoyos del Espino","ine":"05105","aprox":true},"geometry":{"type":"Point","coordinates":[-5.1753,40.3248]}},{"type":"Feature","properties":{"nombre":"Hoyos de Miguel Muñoz","ine":"05106","aprox":true},"geometry":{"type":"Point","coordinates":[-5.0667,40.3915]}},{"type":"Feature","properties":{"nombre":"Hurtumpascual","ine":"05107","aprox":true},"geometry":{"type":"Point","coordinates":[-5.1059,40.6792]}},{"type":"Feature","properties":{"nombre":"Junciana","ine":"05108","aprox":true},"geometry":{"type":"Point","coordinates":[-5.566,40.4114]}},{"type":"Feature","properties":{"nombre":"Lanzahíta","ine":"05110","aprox":true},"geometry":{"type":"Point","coordinates":[-4.9385,40.1924]}},{"type":"Feature","properties":{"nombre":"El Losar del Barco","ine":"05112","aprox":true},"geometry":{"type":"Point","coordinates":[-5.5356,40.3988]}},{"type":"Feature","properties":{"nombre":"Los Llanos de Tormes","ine":"05113","aprox":true},"geometry":{"type":"Point","coordinates":[-5.4727,40.3369]}},{"type":"Feature","properties":{"nombre":"Madrigal de las Altas Torres","ine":"05114","aprox":true},"geometry":{"type":"Point","coordinates":[-5.0318,41.1018]}},{"type":"Feature","properties":{"nombre":"Manjabálago y Ortigosa de Rioalmar","ine":"05119","aprox":true},"geometry":{"type":"Point","coordinates":[-5.0735,40.6711]}},{"type":"Feature","properties":{"nombre":"Marlín","ine":"05120","aprox":true},"geometry":{"type":"Point","coordinates":[-4.8246,40.7109]}},{"type":"Feature","properties":{"nombre":"Maello","ine":"05115","aprox":true},"geometry":{"type":"Point","coordinates":[-4.5554,40.8153]}},{"type":"Feature","properties":{"nombre":"Martiherrero","ine":"05121","aprox":true},"geometry":{"type":"Point","coordinates":[-4.7823,40.6824]}},{"type":"Feature","properties":{"nombre":"Martínez","ine":"05122","aprox":true},"geometry":{"type":"Point","coordinates":[-5.3573,40.6284]}},{"type":"Feature","properties":{"nombre":"Mediana de Voltoya","ine":"05123","aprox":true},"geometry":{"type":"Point","coordinates":[-4.5573,40.709]}},{"type":"Feature","properties":{"nombre":"Medinilla","ine":"05124","aprox":true},"geometry":{"type":"Point","coordinates":[-5.6035,40.4511]}},{"type":"Feature","properties":{"nombre":"Mengamuñoz","ine":"05125","aprox":true},"geometry":{"type":"Point","coordinates":[-5.0121,40.5012]}},{"type":"Feature","properties":{"nombre":"Mingorría","ine":"05128","aprox":true},"geometry":{"type":"Point","coordinates":[-4.6785,40.7657]}},{"type":"Feature","properties":{"nombre":"El Mirón","ine":"05129","aprox":true},"geometry":{"type":"Point","coordinates":[-5.4,40.5562]}},{"type":"Feature","properties":{"nombre":"Mironcillo","ine":"05130","aprox":true},"geometry":{"type":"Point","coordinates":[-4.8217,40.5547]}},{"type":"Feature","properties":{"nombre":"Mirueña de los Infanzones","ine":"05131","aprox":true},"geometry":{"type":"Point","coordinates":[-5.0826,40.7351]}},{"type":"Feature","properties":{"nombre":"La Serrada","ine":"05232","aprox":true},"geometry":{"type":"Point","coordinates":[-4.788,40.6308]}},{"type":"Feature","properties":{"nombre":"Mombeltrán","ine":"05132","aprox":true},"geometry":{"type":"Point","coordinates":[-5.0088,40.2121]}},{"type":"Feature","properties":{"nombre":"La Torre","ine":"05247","aprox":true},"geometry":{"type":"Point","coordinates":[-4.9651,40.6088]}},{"type":"Feature","properties":{"nombre":"Umbrías","ine":"05249","aprox":true},"geometry":{"type":"Point","coordinates":[-5.5748,40.3141]}},{"type":"Feature","properties":{"nombre":"Monsalupe","ine":"05133","aprox":true},"geometry":{"type":"Point","coordinates":[-4.7888,40.77]}},{"type":"Feature","properties":{"nombre":"Moraleja de Matacabras","ine":"05134","aprox":true},"geometry":{"type":"Point","coordinates":[-4.9441,41.1166]}},{"type":"Feature","properties":{"nombre":"Muñotello","ine":"05143","aprox":true},"geometry":{"type":"Point","coordinates":[-5.032,40.5418]}},{"type":"Feature","properties":{"nombre":"Muñana","ine":"05135","aprox":true},"geometry":{"type":"Point","coordinates":[-5.0218,40.5972]}},{"type":"Feature","properties":{"nombre":"Muñico","ine":"05136","aprox":true},"geometry":{"type":"Point","coordinates":[-5.0363,40.7074]}},{"type":"Feature","properties":{"nombre":"Muñogalindo","ine":"05138","aprox":true},"geometry":{"type":"Point","coordinates":[-4.9029,40.599]}},{"type":"Feature","properties":{"nombre":"Muñogrande","ine":"05139","aprox":true},"geometry":{"type":"Point","coordinates":[-4.9401,40.8158]}},{"type":"Feature","properties":{"nombre":"Narrillos del Álamo","ine":"05144","aprox":true},"geometry":{"type":"Point","coordinates":[-5.4702,40.5729]}},{"type":"Feature","properties":{"nombre":"Narrillos del Rebollar","ine":"05145","aprox":true},"geometry":{"type":"Point","coordinates":[-4.9566,40.6736]}},{"type":"Feature","properties":{"nombre":"Navacepedilla de Corneja","ine":"05151","aprox":true},"geometry":{"type":"Point","coordinates":[-5.1625,40.4872]}},{"type":"Feature","properties":{"nombre":"Narros del Castillo","ine":"05147","aprox":true},"geometry":{"type":"Point","coordinates":[-5.0618,40.8493]}},{"type":"Feature","properties":{"nombre":"Narros del Puerto","ine":"05148","aprox":true},"geometry":{"type":"Point","coordinates":[-4.9951,40.5377]}},{"type":"Feature","properties":{"nombre":"Narros de Saldueña","ine":"05149","aprox":true},"geometry":{"type":"Point","coordinates":[-4.8734,40.8795]}},{"type":"Feature","properties":{"nombre":"Nava de Arévalo","ine":"05152","aprox":true},"geometry":{"type":"Point","coordinates":[-4.7664,40.9967]}},{"type":"Feature","properties":{"nombre":"Nava del Barco","ine":"05153","aprox":true},"geometry":{"type":"Point","coordinates":[-5.5563,40.2694]}},{"type":"Feature","properties":{"nombre":"Navalmoral","ine":"05158","aprox":true},"geometry":{"type":"Point","coordinates":[-4.7461,40.4621]}},{"type":"Feature","properties":{"nombre":"Navadijos","ine":"05154","aprox":true},"geometry":{"type":"Point","coordinates":[-5.09,40.4204]}},{"type":"Feature","properties":{"nombre":"Navaescurial","ine":"05155","aprox":true},"geometry":{"type":"Point","coordinates":[-5.2599,40.4626]}},{"type":"Feature","properties":{"nombre":"Navalonguilla","ine":"05159","aprox":true},"geometry":{"type":"Point","coordinates":[-5.5034,40.2432]}},{"type":"Feature","properties":{"nombre":"Navahondilla","ine":"05156","aprox":true},"geometry":{"type":"Point","coordinates":[-4.4891,40.34]}},{"type":"Feature","properties":{"nombre":"Navalacruz","ine":"05157","aprox":true},"geometry":{"type":"Point","coordinates":[-4.9457,40.4541]}},{"type":"Feature","properties":{"nombre":"Navalosa","ine":"05160","aprox":true},"geometry":{"type":"Point","coordinates":[-4.9245,40.3891]}},{"type":"Feature","properties":{"nombre":"Navalperal de Pinares","ine":"05161","aprox":true},"geometry":{"type":"Point","coordinates":[-4.444,40.5965]}},{"type":"Feature","properties":{"nombre":"Orbita","ine":"05174","aprox":true},"geometry":{"type":"Point","coordinates":[-4.6571,40.9937]}},{"type":"Feature","properties":{"nombre":"Navalperal de Tormes","ine":"05162","aprox":true},"geometry":{"type":"Point","coordinates":[-5.2781,40.3254]}},{"type":"Feature","properties":{"nombre":"Navaluenga","ine":"05163","aprox":true},"geometry":{"type":"Point","coordinates":[-4.6934,40.395]}},{"type":"Feature","properties":{"nombre":"Navaquesera","ine":"05164","aprox":true},"geometry":{"type":"Point","coordinates":[-4.9171,40.4229]}},{"type":"Feature","properties":{"nombre":"Navarredonda de Gredos","ine":"05165","aprox":true},"geometry":{"type":"Point","coordinates":[-5.1155,40.349]}},{"type":"Feature","properties":{"nombre":"Navarredondilla","ine":"05166","aprox":true},"geometry":{"type":"Point","coordinates":[-4.8348,40.4394]}},{"type":"Feature","properties":{"nombre":"Navarrevisca","ine":"05167","aprox":true},"geometry":{"type":"Point","coordinates":[-4.873,40.3584]}},{"type":"Feature","properties":{"nombre":"Las Navas del Marqués","ine":"05168","aprox":true},"geometry":{"type":"Point","coordinates":[-4.35,40.5923]}},{"type":"Feature","properties":{"nombre":"Navatalgordo","ine":"05169","aprox":true},"geometry":{"type":"Point","coordinates":[-4.8555,40.4099]}},{"type":"Feature","properties":{"nombre":"Navatejares","ine":"05170","aprox":true},"geometry":{"type":"Point","coordinates":[-5.5376,40.3217]}},{"type":"Feature","properties":{"nombre":"Neila de San Miguel","ine":"05171","aprox":true},"geometry":{"type":"Point","coordinates":[-5.6546,40.4288]}},{"type":"Feature","properties":{"nombre":"Palacios de Goda","ine":"05178","aprox":true},"geometry":{"type":"Point","coordinates":[-4.7632,41.1108]}},{"type":"Feature","properties":{"nombre":"Niharra","ine":"05172","aprox":true},"geometry":{"type":"Point","coordinates":[-4.8427,40.5941]}},{"type":"Feature","properties":{"nombre":"Ojos-Albos","ine":"05173","aprox":true},"geometry":{"type":"Point","coordinates":[-4.5131,40.7261]}},{"type":"Feature","properties":{"nombre":"El Oso","ine":"05175","aprox":true},"geometry":{"type":"Point","coordinates":[-4.7726,40.8511]}},{"type":"Feature","properties":{"nombre":"Papatrigo","ine":"05179","aprox":true},"geometry":{"type":"Point","coordinates":[-4.8411,40.8749]}},{"type":"Feature","properties":{"nombre":"El Parral","ine":"05180","aprox":true},"geometry":{"type":"Point","coordinates":[-4.9907,40.7919]}},{"type":"Feature","properties":{"nombre":"Padiernos","ine":"05176","aprox":true},"geometry":{"type":"Point","coordinates":[-4.8656,40.6313]}},{"type":"Feature","properties":{"nombre":"Pajares de Adaja","ine":"05177","aprox":true},"geometry":{"type":"Point","coordinates":[-4.6453,40.9195]}},{"type":"Feature","properties":{"nombre":"Pedro Bernardo","ine":"05182","aprox":true},"geometry":{"type":"Point","coordinates":[-4.9091,40.2426]}},{"type":"Feature","properties":{"nombre":"Pedro-Rodríguez","ine":"05183","aprox":true},"geometry":{"type":"Point","coordinates":[-4.7848,40.9379]}},{"type":"Feature","properties":{"nombre":"Peguerinos","ine":"05184","aprox":true},"geometry":{"type":"Point","coordinates":[-4.2267,40.6493]}},{"type":"Feature","properties":{"nombre":"Peñalba de Ávila","ine":"05185","aprox":true},"geometry":{"type":"Point","coordinates":[-4.7216,40.7962]}},{"type":"Feature","properties":{"nombre":"Piedrahíta","ine":"05186","aprox":true},"geometry":{"type":"Point","coordinates":[-5.3378,40.4706]}},{"type":"Feature","properties":{"nombre":"Piedralaves","ine":"05187","aprox":true},"geometry":{"type":"Point","coordinates":[-4.7116,40.3212]}},{"type":"Feature","properties":{"nombre":"Poveda","ine":"05188","aprox":true},"geometry":{"type":"Point","coordinates":[-5.0876,40.5742]}},{"type":"Feature","properties":{"nombre":"Poyales del Hoyo","ine":"05189","aprox":true},"geometry":{"type":"Point","coordinates":[-5.1628,40.1696]}},{"type":"Feature","properties":{"nombre":"Vadillo de la Sierra","ine":"05251","aprox":true},"geometry":{"type":"Point","coordinates":[-5.1288,40.6137]}},{"type":"Feature","properties":{"nombre":"Pozanco","ine":"05190","aprox":true},"geometry":{"type":"Point","coordinates":[-4.6658,40.801]}},{"type":"Feature","properties":{"nombre":"Pradosegar","ine":"05191","aprox":true},"geometry":{"type":"Point","coordinates":[-5.0753,40.5398]}},{"type":"Feature","properties":{"nombre":"Puerto Castilla","ine":"05192","aprox":true},"geometry":{"type":"Point","coordinates":[-5.6303,40.2717]}},{"type":"Feature","properties":{"nombre":"Rasueros","ine":"05193","aprox":true},"geometry":{"type":"Point","coordinates":[-5.0672,41.0215]}},{"type":"Feature","properties":{"nombre":"Riocabado","ine":"05194","aprox":true},"geometry":{"type":"Point","coordinates":[-4.8022,40.8372]}},{"type":"Feature","properties":{"nombre":"San Bartolomé de Béjar","ine":"05199","aprox":true},"geometry":{"type":"Point","coordinates":[-5.6719,40.391]}},{"type":"Feature","properties":{"nombre":"San Bartolomé de Corneja","ine":"05200","aprox":true},"geometry":{"type":"Point","coordinates":[-5.3775,40.4918]}},{"type":"Feature","properties":{"nombre":"Riofrío","ine":"05195","aprox":true},"geometry":{"type":"Point","coordinates":[-4.7544,40.54]}},{"type":"Feature","properties":{"nombre":"Rivilla de Barajas","ine":"05196","aprox":true},"geometry":{"type":"Point","coordinates":[-5.0143,40.8831]}},{"type":"Feature","properties":{"nombre":"San Bartolomé de Pinares","ine":"05201","aprox":true},"geometry":{"type":"Point","coordinates":[-4.4861,40.5377]}},{"type":"Feature","properties":{"nombre":"Sanchidrián","ine":"05204","aprox":true},"geometry":{"type":"Point","coordinates":[-4.5859,40.8951]}},{"type":"Feature","properties":{"nombre":"Sanchorreja","ine":"05205","aprox":true},"geometry":{"type":"Point","coordinates":[-4.8801,40.6783]}},{"type":"Feature","properties":{"nombre":"San Esteban de los Patos","ine":"05206","aprox":true},"geometry":{"type":"Point","coordinates":[-4.6309,40.7405]}},{"type":"Feature","properties":{"nombre":"San García de Ingelmos","ine":"05209","aprox":true},"geometry":{"type":"Point","coordinates":[-5.1145,40.7641]}},{"type":"Feature","properties":{"nombre":"San Esteban del Valle","ine":"05207","aprox":true},"geometry":{"type":"Point","coordinates":[-4.9587,40.2873]}},{"type":"Feature","properties":{"nombre":"San Esteban de Zapardiel","ine":"05208","aprox":true},"geometry":{"type":"Point","coordinates":[-4.8957,41.0984]}},{"type":"Feature","properties":{"nombre":"San Juan de la Encinilla","ine":"05210","aprox":true},"geometry":{"type":"Point","coordinates":[-4.8325,40.8195]}},{"type":"Feature","properties":{"nombre":"San Juan de la Nava","ine":"05211","aprox":true},"geometry":{"type":"Point","coordinates":[-4.6759,40.4676]}},{"type":"Feature","properties":{"nombre":"San Juan del Molinillo","ine":"05212","aprox":true},"geometry":{"type":"Point","coordinates":[-4.8437,40.4683]}},{"type":"Feature","properties":{"nombre":"San Juan del Olmo","ine":"05213","aprox":true},"geometry":{"type":"Point","coordinates":[-5.0634,40.639]}},{"type":"Feature","properties":{"nombre":"San Lorenzo de Tormes","ine":"05214","aprox":true},"geometry":{"type":"Point","coordinates":[-5.4964,40.3747]}},{"type":"Feature","properties":{"nombre":"San Martín del Pimpollar","ine":"05216","aprox":true},"geometry":{"type":"Point","coordinates":[-5.0426,40.3613]}},{"type":"Feature","properties":{"nombre":"San Miguel de Corneja","ine":"05217","aprox":true},"geometry":{"type":"Point","coordinates":[-5.2772,40.4919]}},{"type":"Feature","properties":{"nombre":"San Miguel de Serrezuela","ine":"05218","aprox":true},"geometry":{"type":"Point","coordinates":[-5.2717,40.6925]}},{"type":"Feature","properties":{"nombre":"San Pascual","ine":"05219","aprox":true},"geometry":{"type":"Point","coordinates":[-4.7418,40.8934]}},{"type":"Feature","properties":{"nombre":"San Pedro del Arroyo","ine":"05220","aprox":true},"geometry":{"type":"Point","coordinates":[-4.8692,40.7934]}},{"type":"Feature","properties":{"nombre":"Santa Cruz del Valle","ine":"05221","aprox":true},"geometry":{"type":"Point","coordinates":[-4.9972,40.2128]}},{"type":"Feature","properties":{"nombre":"Santa María del Arroyo","ine":"05224","aprox":true},"geometry":{"type":"Point","coordinates":[-4.9388,40.5995]}},{"type":"Feature","properties":{"nombre":"Santa María del Berrocal","ine":"05225","aprox":true},"geometry":{"type":"Point","coordinates":[-5.4172,40.5071]}},{"type":"Feature","properties":{"nombre":"Santa María de los Caballeros","ine":"05226","aprox":true},"geometry":{"type":"Point","coordinates":[-5.4548,40.3877]}},{"type":"Feature","properties":{"nombre":"Santa María del Tiétar","ine":"05227","aprox":true},"geometry":{"type":"Point","coordinates":[-4.5491,40.3048]}},{"type":"Feature","properties":{"nombre":"Santiago del Collado","ine":"05228","aprox":true},"geometry":{"type":"Point","coordinates":[-5.3404,40.4282]}},{"type":"Feature","properties":{"nombre":"San Vicente de Arévalo","ine":"05231","aprox":true},"geometry":{"type":"Point","coordinates":[-4.8058,40.9647]}},{"type":"Feature","properties":{"nombre":"Santo Domingo de las Posadas","ine":"05229","aprox":true},"geometry":{"type":"Point","coordinates":[-4.6362,40.7978]}},{"type":"Feature","properties":{"nombre":"Santo Tomé de Zabarcos","ine":"05230","aprox":true},"geometry":{"type":"Point","coordinates":[-4.9014,40.7908]}},{"type":"Feature","properties":{"nombre":"Serranillos","ine":"05233","aprox":true},"geometry":{"type":"Point","coordinates":[-4.9038,40.3275]}},{"type":"Feature","properties":{"nombre":"Sigeres","ine":"05234","aprox":true},"geometry":{"type":"Point","coordinates":[-4.9406,40.7935]}},{"type":"Feature","properties":{"nombre":"Sinlabajos","ine":"05235","aprox":true},"geometry":{"type":"Point","coordinates":[-4.8426,41.0769]}},{"type":"Feature","properties":{"nombre":"Solana de Ávila","ine":"05236","aprox":true},"geometry":{"type":"Point","coordinates":[-5.6459,40.3307]}},{"type":"Feature","properties":{"nombre":"Solana de Rioalmar","ine":"05237","aprox":true},"geometry":{"type":"Point","coordinates":[-5.0091,40.7436]}},{"type":"Feature","properties":{"nombre":"Solosancho","ine":"05238","aprox":true},"geometry":{"type":"Point","coordinates":[-4.9139,40.5418]}},{"type":"Feature","properties":{"nombre":"Sotalbo","ine":"05239","aprox":true},"geometry":{"type":"Point","coordinates":[-4.8656,40.511]}},{"type":"Feature","properties":{"nombre":"Sotillo de la Adrada","ine":"05240","aprox":true},"geometry":{"type":"Point","coordinates":[-4.5957,40.2933]}},{"type":"Feature","properties":{"nombre":"El Tiemblo","ine":"05241","aprox":true},"geometry":{"type":"Point","coordinates":[-4.4954,40.3905]}},{"type":"Feature","properties":{"nombre":"Tiñosillos","ine":"05242","aprox":true},"geometry":{"type":"Point","coordinates":[-4.7136,40.9497]}},{"type":"Feature","properties":{"nombre":"Valdecasa","ine":"05252","aprox":true},"geometry":{"type":"Point","coordinates":[-5.0158,40.669]}},{"type":"Feature","properties":{"nombre":"Tolbaños","ine":"05243","aprox":true},"geometry":{"type":"Point","coordinates":[-4.5852,40.7538]}},{"type":"Feature","properties":{"nombre":"Tormellas","ine":"05244","aprox":true},"geometry":{"type":"Point","coordinates":[-5.5062,40.3076]}},{"type":"Feature","properties":{"nombre":"Tornadizos de Ávila","ine":"05245","aprox":true},"geometry":{"type":"Point","coordinates":[-4.6101,40.6037]}},{"type":"Feature","properties":{"nombre":"Tórtoles","ine":"05246","aprox":true},"geometry":{"type":"Point","coordinates":[-5.2728,40.5714]}},{"type":"Feature","properties":{"nombre":"Vega de Santa María","ine":"05253","aprox":true},"geometry":{"type":"Point","coordinates":[-4.6568,40.839]}},{"type":"Feature","properties":{"nombre":"Velayos","ine":"05254","aprox":true},"geometry":{"type":"Point","coordinates":[-4.6035,40.8474]}},{"type":"Feature","properties":{"nombre":"Viñegra de Moraña","ine":"05264","aprox":true},"geometry":{"type":"Point","coordinates":[-4.9242,40.8506]}},{"type":"Feature","properties":{"nombre":"Villaflor","ine":"05256","aprox":true},"geometry":{"type":"Point","coordinates":[-4.8831,40.7508]}},{"type":"Feature","properties":{"nombre":"Villafranca de la Sierra","ine":"05257","aprox":true},"geometry":{"type":"Point","coordinates":[-5.165,40.4875]}},{"type":"Feature","properties":{"nombre":"Villanueva de Gómez","ine":"05258","aprox":true},"geometry":{"type":"Point","coordinates":[-4.6963,40.8871]}},{"type":"Feature","properties":{"nombre":"Villanueva del Aceral","ine":"05259","aprox":true},"geometry":{"type":"Point","coordinates":[-4.8676,41.0417]}},{"type":"Feature","properties":{"nombre":"Villanueva del Campillo","ine":"05260","aprox":true},"geometry":{"type":"Point","coordinates":[-5.1914,40.5839]}},{"type":"Feature","properties":{"nombre":"Villar de Corneja","ine":"05261","aprox":true},"geometry":{"type":"Point","coordinates":[-5.4412,40.4779]}},{"type":"Feature","properties":{"nombre":"Villarejo del Valle","ine":"05262","aprox":true},"geometry":{"type":"Point","coordinates":[-4.9863,40.3284]}},{"type":"Feature","properties":{"nombre":"Villatoro","ine":"05263","aprox":true},"geometry":{"type":"Point","coordinates":[-5.1002,40.5306]}},{"type":"Feature","properties":{"nombre":"Zapardiel de la Cañada","ine":"05266","aprox":true},"geometry":{"type":"Point","coordinates":[-5.3158,40.6053]}},{"type":"Feature","properties":{"nombre":"Zapardiel de la Ribera","ine":"05267","aprox":true},"geometry":{"type":"Point","coordinates":[-5.3158,40.309]}},{"type":"Feature","properties":{"nombre":"Villanueva de Ávila","ine":"05905","aprox":true},"geometry":{"type":"Point","coordinates":[-4.8229,40.3702]}},{"type":"Feature","properties":{"nombre":"San Juan de Gredos","ine":"05901","aprox":true},"geometry":{"type":"Point","coordinates":[-5.2422,40.356]}},{"type":"Feature","properties":{"nombre":"Santa María del Cubillo","ine":"05902","aprox":true},"geometry":{"type":"Point","coordinates":[-4.4629,40.7184]}},{"type":"Feature","properties":{"nombre":"Diego del Carpio","ine":"05903","aprox":true},"geometry":{"type":"Point","coordinates":[-5.3334,40.6683]}},{"type":"Feature","properties":{"nombre":"Santiago del Tormes","ine":"05904","aprox":true},"geometry":{"type":"Point","coordinates":[-5.3741,40.3467]}}]}