{"type":"FeatureCollection","features":[{"type":"Feature","properties":{"nombre":"Ávila","ine":"05019"},"geometry":{"type":"Polygon","coordinates":[[[-4.814894046147614,40.72268787941114],[-4.796901074386438,40.753384796297034],[-4.778908102625262,40.74530666027443],[-4.787904588505851,40.72915038822923],[-4.783406345565556,40.71784099779758],[-4.76541337380438,40.72753476102471],[-4.747420402043204,40.72268787941114],[-4.733925673222322,40.70006909854786],[-4.695690608229823,40.709762861774976],[-4.6889432438193825,40.73399726984279],[-4.652957300297031,40.735612897047304],[-4.634964328535855,40.71784099779758],[-4.616971356774677,40.70814723457046],[-4.6102239923642365,40.688759708116216],[-4.576487170312031,40.68068157209361],[-4.553995955610562,40.688759708116216],[-4.538252105319533,40.68391282650265],[-4.529255619438944,40.693606589729775],[-4.51801001208821,40.688759708116216],[-4.470778461215122,40.69199096252525],[-4.452785489453946,40.66775655445745],[-4.466280218274827,40.63544401036704],[-4.479774947095709,40.61928773832183],[-4.5135117691479145,40.622518992730875],[-4.509013526207621,40.633828383162516],[-4.533753862379237,40.649984655207724],[-4.551746834140415,40.65160028241225],[-4.565241562961296,40.666140927252926],[-4.594480142073207,40.65160028241225],[-4.587732777662767,40.6402908919806],[-4.619220478244825,40.64675340079868],[-4.6462099358865885,40.61928773832183],[-4.657455543237324,40.59666895745855],[-4.6889432438193825,40.59990021186759],[-4.693441486759676,40.562740786163616],[-4.713683579990999,40.56435641336814],[-4.720430944401441,40.5772814310043],[-4.767662495274527,40.574050176595264],[-4.747420402043204,40.583743939822384],[-4.7429221591029105,40.60636272068567],[-4.729427430282028,40.61120960229923],[-4.720430944401441,40.64352214638964],[-4.738423916162617,40.64190651918512],[-4.751918644983499,40.65806279123032],[-4.740673037632764,40.677450317684574],[-4.778908102625262,40.70814723457046],[-4.794651952916292,40.70814723457046],[-4.810395803207321,40.71784099779758],[-4.814894046147614,40.72268787941114]]]}},{"type":"Feature","properties":{"nombre":"Terrassa","ine":"08279"},"geometry":{"type":"Polygon","coordinates":[[[1.9594598219351944,41.53857961769397],[1.988698401047106,41.56119839855726],[1.9819510366366622,41.5725077889889],[1.9617089434053412,41.57897029780698],[1.9437159716441634,41.60158907867027],[1.9549615789949009,41.624207859533556],[1.9752036722262218,41.63713287716972],[1.9707054292859283,41.64844226760136],[1.9819510366366622,41.64844226760136],[1.9797019151665154,41.62259223232903],[2.0291825875097516,41.591895315443146],[2.044926437800779,41.60320470587479],[2.0629194095619567,41.58704843382959],[2.0651685310321035,41.541810872103014],[2.0539229236813696,41.525654600057806],[2.033680830450045,41.52888585446685],[2.033680830450045,41.5175764640352],[2.024684344569458,41.52727022726233],[1.9909475225172528,41.54342649930753],[1.9864492795769593,41.53534836328493],[1.9594598219351944,41.53857961769397]]]}},{"type":"Feature","properties":{"nombre":"Getafe","ine":"28065"},"geometry":{"type":"Polygon","coordinates":[[[-3.7623051981188116,40.29454667021322],[-3.742063104887489,40.32524358709911],[-3.724070133126313,40.334937350326236],[-3.6925824325442544,40.32039670548555],[-3.6498491246114604,40.33332172312171],[-3.6296070313801376,40.32039670548555],[-3.598119330798079,40.312318569462946],[-3.5756281160966097,40.31554982387199],[-3.571129873156316,40.28646853419062],[-3.5958702093279324,40.2848529069861],[-3.5958702093279324,40.273543516554454],[-3.6228596669696973,40.26708100773638],[-3.6386035172607265,40.291315415804185],[-3.6498491246114604,40.29293104300871],[-3.6745894607830785,40.2767747709635],[-3.7105754043054304,40.26708100773638],[-3.739813983417342,40.27031226214542],[-3.7555578337083713,40.2767747709635],[-3.7623051981188116,40.29454667021322]]]}}]}