{"type":"FeatureCollection","features":[{"type":"Feature","properties":{"id":"avila","nombre":"Ávila","rol":"base","ine":"05019","aprox":true},"geometry":{"type":"Point","coordinates":[-4.64551,40.66316]}},{"type":"Feature","properties":{"id":"terrassa","nombre":"Terrassa","rol":"familia","ine":"08279","aprox":true},"geometry":{"type":"Point","coordinates":[2.00824,41.57553]}},{"type":"Feature","properties":{"id":"getafe","nombre":"Getafe","rol":"familia","ine":"28065","aprox":true},"geometry":{"type":"Point","coordinates":[-3.67362,40.29946]}}]}