{"type":"FeatureCollection","features":[{"type":"Feature","properties":{"id":"avila-terrassa-A","titulo":"Ruta A — Principal (A-6 · M-50 · A-2)","via":"AP-51/A-51 → A-6 → M-50 → A-2 → AP-2/A-2 → Martorell → Terrassa","tipo":"principal","kmPolilinea":643,"kmEstimados":645,"localidades":["Ávila","Villacastín","El Espinar","Guadarrama","Collado Villalba","Las Rozas de Madrid","Madrid","Alcalá de Henares","Guadalajara","Torija","Alcolea del Pinar","Medinaceli","Arcos de Jalón","Ariza","Calatayud","La Almunia de Doña Godina","Zaragoza","Bujaraloz","Fraga","Lleida","Bellpuig","Tàrrega","Cervera","Jorba","Igualada","Martorell","Abrera","Terrassa"],"ine":["05019","40225","40076","28068","28047","28127","28079","28005","19130","19274","19011","42113","42025","50034","50067","50025","50297","50059","22112","25120","25050","25217","25072","08103","08102","08114","08001","08279"]},"geometry":{"type":"LineString","coordinates":[[-4.64551,40.66316],[-4.41892,40.75685],[-4.22385,40.72971],[-4.10712,40.67651],[-3.98896,40.64282],[-3.89204,40.52266],[-3.69627,40.46513],[-3.36923,40.49435],[-3.17527,40.63843],[-3.03933,40.74271],[-2.48221,40.99764],[-2.4281,41.16023],[-2.25159,41.17503],[-2.04541,41.32291],[-1.62374,41.37619],[-1.36083,41.47164],[-0.927,41.68054],[-0.1404,41.45094],[0.21598,41.48347],[0.58162,41.6312],[1.0071,41.63028],[1.14208,41.67262],[1.28083,41.67886],[1.52914,41.60441],[1.61185,41.58514],[1.91965,41.47703],[1.90753,41.51563],[2.00824,41.57553]]}},{"type":"Feature","properties":{"id":"avila-terrassa-B","titulo":"Ruta B — Evitando Madrid (N-110 · A-15 · A-68)","via":"N-110 → Segovia → Soria → A-15 → Tudela → AP-68/A-68 → Zaragoza → A-2 → Terrassa","tipo":"alternativa","kmPolilinea":645,"kmEstimados":645,"localidades":["Ávila","Segovia","Soria","Ágreda","Tudela","Gallur","Zaragoza","Bujaraloz","Fraga","Lleida","Cervera","Igualada","Martorell","Terrassa"],"ine":["05019","40194","42173","42004","31232","50118","50297","50059","22112","25120","25072","08102","08114","08279"]},"geometry":{"type":"LineString","coordinates":[[-4.64551,40.66316],[-4.16917,40.90259],[-2.68243,41.82324],[-1.90124,41.85386],[-1.64509,42.08097],[-1.32129,41.86305],[-0.927,41.68054],[-0.1404,41.45094],[0.21598,41.48347],[0.58162,41.6312],[1.28083,41.67886],[1.61185,41.58514],[1.91965,41.47703],[2.00824,41.57553]]}},{"type":"Feature","properties":{"id":"avila-terrassa-C","titulo":"Ruta C — Sur, por autopista de peaje (AP-2 · AP-7)","via":"AP-51 → A-6 → M-40 → A-2 → Zaragoza → AP-2 → Montblanc → AP-7 → Martorell → Terrassa","tipo":"alternativa","kmPolilinea":646,"kmEstimados":645,"localidades":["Ávila","Villacastín","Guadarrama","Madrid","Guadalajara","Medinaceli","Calatayud","Zaragoza","Fraga","Lleida","Montblanc","Valls","El Vendrell","Vilafranca del Penedès","Martorell","Terrassa"],"ine":["05019","40225","28068","28079","19130","42113","50067","50297","22112","25120","43086","43161","43163","08305","08114","08279"]},"geometry":{"type":"LineString","coordinates":[[-4.64551,40.66316],[-4.41892,40.75685],[-4.10712,40.67651],[-3.69627,40.46513],[-3.17527,40.63843],[-2.4281,41.16023],[-1.62374,41.37619],[-0.927,41.68054],[0.21598,41.48347],[0.58162,41.6312],[1.1552,41.36266],[1.23748,41.30121],[1.52191,41.20488],[1.70036,41.34725],[1.91965,41.47703],[2.00824,41.57553]]}},{"type":"Feature","properties":{"id":"avila-getafe-A","titulo":"Ruta A — Principal (AP-51 · A-6 · M-50)","via":"AP-51/A-51 → A-6 → M-50 → A-42/M-45 → Getafe","tipo":"principal","kmPolilinea":111,"kmEstimados":110,"localidades":["Ávila","Villacastín","El Espinar","Guadarrama","Collado Villalba","Las Rozas de Madrid","Boadilla del Monte","Alcorcón","Leganés","Getafe"],"ine":["05019","40225","40076","28068","28047","28127","28022","28007","28074","28065"]},"geometry":{"type":"LineString","coordinates":[[-4.64551,40.66316],[-4.41892,40.75685],[-4.22385,40.72971],[-4.10712,40.67651],[-3.98896,40.64282],[-3.89204,40.52266],[-3.89209,40.42144],[-3.8371,40.35931],[-3.77065,40.33101],[-3.67362,40.29946]]}},{"type":"Feature","properties":{"id":"avila-getafe-B","titulo":"Ruta B — Por el sur (N-403 · A-5)","via":"N-403 → Maqueda → A-5 → M-50 → Getafe","tipo":"alternativa","kmPolilinea":141,"kmEstimados":140,"localidades":["Ávila","Sotillo de la Adrada","Maqueda","Santa Cruz del Retamar","Navalcarnero","Móstoles","Fuenlabrada","Getafe"],"ine":["05019","05240","45091","45157","28096","28092","28058","28065"]},"geometry":{"type":"LineString","coordinates":[[-4.64551,40.66316],[-4.59573,40.29337],[-4.36579,40.07909],[-4.28286,40.17373],[-4.01292,40.28878],[-3.88949,40.31956],[-3.79644,40.2838],[-3.67362,40.29946]]}},{"type":"Feature","properties":{"id":"avila-getafe-C","titulo":"Ruta C — Valle del Alberche (N-403 · M-501)","via":"N-403 → El Tiemblo → San Martín de Valdeiglesias → M-501 → Alcorcón → Getafe","tipo":"alternativa","kmPolilinea":105,"kmEstimados":105,"localidades":["Ávila","El Tiemblo","San Martín de Valdeiglesias","Navas del Rey","Villaviciosa de Odón","Alcorcón","Leganés","Getafe"],"ine":["05019","05241","28133","28099","28181","28007","28074","28065"]},"geometry":{"type":"LineString","coordinates":[[-4.64551,40.66316],[-4.49542,40.39049],[-4.36238,40.36215],[-4.27052,40.38296],[-3.938,40.36175],[-3.8371,40.35931],[-3.77065,40.33101],[-3.67362,40.29946]]}}]}